"name";"reviewNum";"searchKey";"givenKey";"address";"latitude";"longitude";"id"
"Ho Shun Primary School";16;"";"School";"Lei Muk Shue";22.379813;114.134188;178
"S.K.H. Chu Oi Primary School";27;"";"School";"45 Tung Chi St, Kwai Chung";22.370813;114.139812;179
"Shek Lei Catholic Secondary School";17;"";"Middle school";"23-31 On Chit St, Kwai Chung";22.371563;114.140437;180
"C.C.C. Chuen Yuen College";27;"";"Middle school";"Kwai Chung, Sheung Kok St, 15號葵涌邨";22.368813;114.128063;181
"Salvation Army Lei Muk Shue Nursery School";0;"";"Nursery school";"Lei Muk Shue, Wo Yi Hop Rd, B及C翼地下 Lei Muk Shue Estate Yeung Shue House";22.377438;114.135438;182
"Ju Ching Chu Secondary School (Kwai Chung)";18;"";"Middle school";"1-11 On Chit St, Kwai Chung";22.370437;114.140813;183
"English Excel School (Lai Chi Kok)";1;"";"School";"Lai Chi Kok, 深盛路9號宇晴匯商場2樓32和35號";22.334438;114.149813;213
"Lung Kong World Federation School Limited Lau Wong Fat Secondary School";24;"";"Middle school";"66 Sycamore St, Tai Kok Tsui";22.325812;114.162562;236
"Sharon Lutheran School";25;"";"Primary school";"18 Cherry St, Tai Kok Tsui";22.318938;114.164938;237
"Saint Louis School (Primary Section)";12;"";"Primary school";"179 Third St, Sai Wan";22.286188;114.138063;238
"英華女學校 Ying Wa Girl' s School";3;"";"School";"101 Castle Peak Rd, Sham Shui Po";22.333563;114.162438;240
"English Excel School (Olympic)";0;"";"School";"Tai Kok Tsui, 西九匯, 1/F, 101舖";22.318438;114.161688;242
"St. Francis Xavier's College";42;"";"Middle school";"45 Sycamore St, Tai Kok Tsui";22.325563;114.163187;243
"Po Leung Kuk Camões Tan Siu Lin Primary School";69;"";"Primary school";"6 Hoi Ting Rd, Mong Kok";22.315063;114.165438;244
"California School";3;"";"Private school";"Yau Ma Tei, 550 Nathan Road, Lung Ma Building, Yau Ma Tei, Kowloon, Hong Kong";22.314188;114.170688;245
"Hong Kong Christian Services Central Nursery School";4;"";"Nursery school";"557 Shanghai St, Mong Kok";22.318688;114.167938;246
"The ELCHK Faith Lutheran School";15;"";"Primary school";"Pak Tin, 培德街8號";22.335437;114.165313;247
"Salvation Army Hoi Fu Nursery School";0;"";"Nursery school";"Mong Kok, 九龍旺角西海富苑海寧閣B及C翼地下";22.316313;114.164313;248
"Yew Chung Kindergarten";8;"";"International school";"Yew Chung International Children's House, Waterloo Rd, Kowloon Tong";22.338813;114.178812;250
"Yaumati Kaifong Association School";13;"";"Primary school";"80 Public Square St, Yau Ma Tei";22.310187;114.171687;251
"Hong Kong Effective Careers Institute";0;"";"School";"Elaine Court, 1 Tung Choi St, Prince Edward";22.325188;114.168313;254
"Beacon Hill School 畢架山小學";0;"";"International school";"23 Ede Rd, Kowloon Tong";22.342187;114.177938;255
"Hong Kong Christian Services Shek Kip Mei Nursery School";3;"";"Nursery school";"Shek Kip Mei";22.333563;114.165313;258
"Salvation Army Lai Chi Kok Nursery School";0;"";"Nursery school";"168 Lai Chi Kok Rd, Prince Edward";22.325687;114.164688;260
"Maryknoll Fathers' School Secondary Section";23;"";"High school";"Tai Hang Tung, 2 To Yuen St, Kowloon Tong";22.334188;114.173313;261
"Saviour Lutheran School";0;"";"Special education school";"288 Tai Po Rd, Pak Tin";22.334687;114.163312;262
"St. Francis of Assisi's English Primary School";75;"";"Primary school";"58 Shek Kip Mei St, Sham Shui Po";22.330938;114.166563;264
"Parkview International Pre-School (Kowloon)";0;"";"Kindergarten";"1 Austin Rd W, West Kowloon";22.305313;114.162063;265
"Carmel Alison Lam Foundation Secondary School";27;"";"School";"4 Wah King Hill Rd, Kwai Chung";22.350688;114.133688;270
"奇力学校";0;"school";"School";"Pok Fu Lam Rd, Pok Fu Lam";22.267812;114.131688;280
"Ebenezer New Hope School";1;"school";"Special education school";"Pok Fu Lam, 薄扶林道131號";22.266688;114.131937;286
"香港大學數碼港學院";0;"school";"School";"Telegraph Bay, 數碼港道100號數碼港一座";22.262562;114.130187;287
"ESF Tennis Classes at Kennedy School";9;"school";"Tennis Instructor";"19 Sha Wan Dr, Sandy Bay, Pok Fu Lam";22.268188;114.125437;288
"陸陳漢語語言學校（數碼港）";0;"school";"School";"Pok Fu Lam, 數碼港道100號數碼港商場405號舖";22.260563;114.130063;289
"S.K.H. Lui Ming Choi Secondary School";18;"school";"Middle school";"57 Wah Fu Road , Wah Fu Estate, Pok Fu Lam";22.252937;114.134313;306
"Hong Kong Academy for Performing Arts - The School of Film and Tv";0;"school";"School";"139 Pok Fu Lam Rd, High West";22.262313;114.135313;310
"薄扶林公眾騎術學校及傷殘人學騎中心";1;"school";"School";"Pok Fu Lam, 水塘道";22.263312;114.135813;311
"The Woodland Pokfulam Pre-School";0;"school";"Preschool";"G/F Commercial Complex, Estate II, Wah Fu, Wah Fu Rd, Pok Fu Lam";22.253313;114.136063;317
"Pui Ying Secondary School";5;"school";"Middle school";"Waterfall Bay, 華富邨華富道55號";22.253562;114.135313;323
"Caritas Chong Yuet Ming Secondary School";6;"school";"Middle school";"Waterfall Bay, 薄扶林華富道53號";22.252812;114.135313;324
"Kellett School (Pokfulam Campus)";8;"school";"School";"Wah Fu Estate, 2 Wah Lok Path, Pok Fu Lam";22.252563;114.139688;328
"Salvation Army Wah Fu Nursery School";0;"school";"Kindergarten";"Waterfall Bay, Wah Cheung St, 7號, Wah Fu (II) Estate Wah Sang House, 樓123-127, 223-229";22.252563;114.136187;331
"Precious Blood Primary School (Wah Fu Estate)";25;"school";"Primary school";"27 Waterfall Bay Rd, Waterfall Bay";22.252438;114.134313;341
"S.K.H. Chi Fu Chi Nam Primary School";20;"school";"Primary school";"3 Chi Fu Cl, Pok Fu Lam";22.257188;114.138687;342
"St. Paul's College Primary School";23;"school";"Primary school";"777號 Victoria Rd, Pok Fu Lam";22.253938;114.138438;343
"Sunshine House International Pre-School (Chi Fu)";1;"school";"Kindergarten";"1 Chi Fu Rd, Pok Fu Lam";22.255313;114.139688;352
"Raimondi College";43;"school";"Middle school";"2 Robinson Rd, Mid-level";22.278313;114.153313;353
"The Woodland Peak Pre-School";0;"school";"Preschool";"81 Peak Rd, The Peak";22.265313;114.154438;354
"International Scholars Tuition School";1;"school";"Tutoring service";"255, 3/F, 257 Des Voeux Rd Central, Sheung Wan";22.286688;114.152063;356
"Discovery Montessori School (Central)";4;"school";"Kindergarten";"Mandarin Building, 35-43 Bonham Strand, Sheung Wan";22.285562;114.152563;357
"English Schools Foundation Peak School";0;"school";"Elementary school";"The Peak, 賓吉道20號";22.267313;114.152813;359
"Sunshine House International Pre-school - The Peak";0;"school";"Kindergarten";"118 Peak Rd, The Peak";22.270313;114.149938;360
"Starlit Voice";2;"school";"Drama school";"3 Arbuthnot Rd, Central";22.280188;114.154187;361
"St. Paul's Co-educational College";57;"school";"Middle school";"St. Paul's Co-educational College, Macdonnell Rd, Mid-level";22.275688;114.157937;363
"HKUST Business School Central";5;"school";"Business school";"Rm 1501- 02, 15/F, Hong Kong Club Building, 3A Chater Rd, Central";22.281563;114.161063;364
"Jean M. Wong School of Ballet (Central) 王仁曼芭蕾舞學校 (中環分校)";0;"school";"School";"Room 3101, 3103 17, Universal Trade Centre, 17-19 Caine Rd, Central";22.280188;114.154187;365
"S.K.H. Kei Yan Primary School";23;"school";"Primary school";"109 Hollywood Rd, Central";22.284062;114.151688;366
"ITS Tutorial School Central";8;"school";"Tutoring service";"Boc Group Life Assurance Tower, 134-136 Des Voeux Rd Central, Sheung Wan";22.285188;114.154563;367
"English Excel School (Mid-levels)";0;"school";"School";"Central, 亞畢諾道3號環貿中心703室";22.280188;114.154312;368
"Carmel School Of Hong Kong (elementary Section)";7;"school";"Primary school";"10 Borrett Rd, Mid-level";22.274563;114.163063;369
"Twinkle Dance Company (Central Branch)";11;"school";"Dance school";"403, 801 Lansing House, 41-47 Queen's Road Central, Central, Central";22.282687;114.155938;370
"German Swiss International School";24;"school";"International school";"German Swiss International School (The Peak Campus) Upper Building, 11 Guildford Rd, The Peak";22.265938;114.161562;371
"The Woodland Montessori Academy (Mid-Levels)";0;"school";"Preschool";"On Fung Building, G/F 3/F,, 110-118 Caine Rd, Mid-level";22.282687;114.150188;372
"Hong Kong Mandarin School";37;"school";"Language school";"40-42 Des Voeux Rd Central, Central";22.283188;114.156687;373
"Singapore International School - Secondary Section";0;"school";"School";"2 Police School Rd, Wong Chuk Hang";22.245188;114.167938;374
"天麟學校 Chamberlain Institute";0;"school";"Art school";"Central, 砵甸乍街10號5樓";22.283188;114.156188;375
"NAE Hong Kong Limited";0;"school";"School";"Central, Ice House St, 12, 2 St. George's Building";22.282063;114.158938;376
"Island School";43;"school";"International school";"20 Borrett Rd, Mid-level";22.273687;114.163563;377
"C & M A South Horizons Nursery School";0;"school";"Nursery school";"29 Yi Nam Rd, Ap Lei Chau";22.243813;114.150062;378
"Hong Kong YWCA Tai Hon Fan Nursery School";1;"school";"Nursery school";"99 Queen's Road Central, Central";22.285063;114.154563;379
"The International Montessori School (Kindergarten Section)(South Horizons Campus)";3;"school";"Educational Institution";"G/F, Blocks 23 to 23A, Phase III Ap Lei Chau, Hong Kong Ap Lei Chau Hong Kong Island HK, South Horizon Drive, South Horizons";22.241687;114.148688;380
"高主教學校";0;"school";"School";"Good View Court, 21號 Robinson Rd, Mid-level";22.279188;114.152437;381
"St. Joseph's College";70;"school";"Middle school";"7 & 26 Kennedy Rd, Mid-level";22.276687;114.158688;382
"Singapore International School - Preparatory Years and Primary Section";19;"school";"School";"23 Nam Long Shan Rd, Aberdeen";22.244687;114.167188;383
"Highgate House School - The Peak";2;"school";"Kindergarten";"100 Peak Rd, The Peak";22.268063;114.151688;384
"S.K.H. Tin Wan Chi Nam Primary School";46;"school";"Primary school";"5 Tin Wan New St, Aberdeen";22.251688;114.151063;385
"The Harbour School (The Garden Campus)";1;"school";"International school";"138 Lee Chi Rd, Ap Lei Chau";22.243563;114.153188;386
"Precious Blood Primary School South Horizons";20;"school";"Primary school";"355 Ap Lei Chau Bridge Rd, South Horizons";22.244063;114.148812;388
"Malvern College Hong Kong Admissions Office";0;"school";"International school";"14/F, Club Lusitano Building, 16 Ice House Street, Central";22.279938;114.157438;389
"Future Island School";0;"school";"School";"Mid-level";22.273563;114.163563;390
"City Kids Pre School and Playgroup";2;"school";"Kindergarten";"12 Borrett Rd, Mid-level";22.274188;114.163688;391
"Victoria Shanghai Academy";49;"school";"School";"道19號 no, 香港香港仔深灣, 19 Shum Wan Rd, Aberdeen";22.241687;114.166313;393
"CDNIS";5;"school";"School";"Canadian International School, 36 Nam Long Shan Rd, Wong Chuk Hang";22.242188;114.167188;395
"Sons’ school (Tin Wan Chi Nam Primary School)";0;"school";"School";"Tin Wan";22.251938;114.151063;396
"The Woodland Harbourside Pre-School";1;"school";"Preschool";"Ocean Court Block 1, G/F,, 3 Aberdeen Praya Rd, Aberdeen";22.247188;114.158938;397
"Hong Kong Pre-School Playgroups Association";0;"school";"Special education school";"12 Borrett Rd, Mid-level";22.274063;114.163937;398
"MWM Wine School by Debra Meiburg MW";3;"school";"School";"Unit 1524, 15/F, 41 Heung Yip Road, Wong Chuk Hang, Wong Chuk Hang";22.247813;114.163187;400
"German Swiss International School - Peak Campus";2;"school";"School";"Magazine Gap, Guildford Rd, 11號Building 22 German Swiss International School (The Peak Campus) Upper Building";22.266063;114.161688;401
"Rosaryhill School";26;"school";"School";"41B Stubbs Rd";22.263688;114.182313;402
"Tang Shiu Kin Victoria Government Secondary School";9;"school";"High school";"5 Oi Kwan Rd, Morrison Hill";22.276938;114.178563;406
"Hong Kong International School - Upper Primary";11;"school";"Private school";"23 S Bay Cl, Repulse Bay";22.239063;114.201062;407
"Canadian International School";39;"school";"International school";"36 Nam Long Shan Rd, Wong Chuk Hang";22.242313;114.167313;408
"Caritas Lok Kan School";0;"school";"High school";"Wan Chai, 聖佛蘭士街42號";22.275438;114.169063;410
"Hong Kong University Graduate Association College";25;"school";"Middle school";"Hkuga College, Nam Fung Rd";22.252062;114.174938;411
"Lai Chack Middle School";14;"school";"Middle school";"180 Canton Rd, Tsim Sha Tsui";22.301438;114.168188;412
"SKH St. James' Primary School";1;"school";"School";"Hong Kong, 110 Kennedy Rd, Wan Chai";22.272688;114.173938;413
"Diocesan Girls' Junior School";24;"school";"Primary school";"1 Jordan Rd, Kowloon City";22.307313;114.172938;414
"Bradbury School";5;"school";"School";"43C Stubbs Rd";22.265938;114.179688;415
"RL School Of Dance";0;"school";"School";"T.a.l. Building, 49 號 16 樓, 45-53 Austin Rd, Yau Ma Tei";22.303313;114.169937;416
"Canton Road Government Primary School";13;"school";"Primary school";"178 Canton Rd, Tsim Sha Tsui";22.301312;114.168313;417
"Canadian International School Private Swimming Pool";1;"school";"School";"36 Nam Long Shan Rd, Aberdeen";22.241812;114.167313;419
"Diocesan Girls' School";86;"school";"Girls' High School";"1 Jordan Rd, Jordan";22.306938;114.173188;421
"Twghs Ng Sheung Lan Memorial Nursery School";0;"school";"Nursery school";"199 Hennessy Rd, Wan Chai";22.277938;114.174563;422
"Hennessy Road Government Primary School";30;"school";"Primary school";"163 Thomson Rd, Wan Chai";22.277437;114.175812;423
"Sheng Kung Hui Tang Shiu Kin Secondary School";28;"school";"Middle school";"9 Oi Kwan Rd, Morrison Hill";22.275813;114.178688;424
"Chinese International School";53;"school";"International school";"1 Hau Yuen Path";22.283563;114.197938;425
"CCC Wanchai Church Kei To Primary School";20;"school";"Primary school";"45 Tung Kun St, Yau Ma Tei";22.311438;114.168938;426
"Pun U Association Wah Yan Primary School";20;"school";"Primary school";"Wan Chai, Stubbs Rd, 1F Shiu Fai Terrace";22.273188;114.176188;428
"Hong Kong School Of Commerce - Kowloon";6;"school";"School";"81 Austin Rd, Tsim Sha Tsui";22.303313;114.170813;429
"Mount Kelly School Hong Kong Tsim Sha Tsui";4;"school";"School";"152號 Austin Rd, Tsim Sha Tsui";22.303063;114.175188;430
"St. Joseph's Primary School";21;"school";"Primary school";"Wan Chai, Wood Rd, 48號";22.275438;114.176688;431
"TWGHs Li Chi Ho Primary School";16;"school";"Primary school";"280 Queen's Rd E, Wan Chai";22.275438;114.177188;432
"St. Paul's Convent School";53;"school";"Girls' High School";"140 Leighton Rd, Causeway Bay";22.278563;114.187188;433
"BSD Education";8;"school";"Educational Institution";"18/F, Fu Fai Commercial Centre, 27 Hillier Street, Sheung Wan";22.285188;114.151312;434
"Mount Kelly School Hong Kong";3;"school";"School";"Tsim Sha Tsui, Austin Rd, GF, 2 and 3 Floor, 152";22.303063;114.175063;435
"St. Paul's Primary Catholic School";8;"school";"Primary school";"Happy Valley, Wong Nai Chung Rd, 81號號 Race Tower";22.273062;114.184312;438
"ESF Tennis Classes at Bradbury School";12;"school";"Tennis Instructor";"43 Stubbs Rd";22.265813;114.179938;439
"ITS Tutorial School TST";1;"school";"Tutoring service";"Cameron Plaza, Shop A-C, 5/F, Cameron Plaza, 25A Tsim Sha Tsui, 23 Cameron Rd, Tsim Sha Tsui";22.299313;114.174313;440
"St. Mary's Canossian School";20;"school";"Primary school";"87-89 Kimberley Rd, Tsim Sha Tsui";22.302812;114.175812;442
"Kowloon Rhenish School";19;"school";"School";"Yau Yat Chuen, Dianthus Rd, 2A號2A號";22.329562;114.175563;443
"Hong Kong Red Cross Hospital Schools";0;"school";"Special education school";"West Kowloon, Hoi Ting Rd, 19號room 907";22.314562;114.162313;444
"Princess School";1;"school";"School";"18 Ocean Park Rd, Ocean Park";22.246813;114.174438;445
"South Island School";21;"school";"School";"50 Nam Fung Rd, Deep Water Bay";22.254063;114.182813;447
"Pole Dance - A Queen Arts School";1;"school";"School";"Prospect Building, 號 樓 493 室, 491-493A Nathan Rd, Yau Ma Tei";22.311687;114.170688;448
"The Woodland Happy Valley Pre-School";1;"school";"Preschool";"2 Hawthorn Road, Happy Valley";22.266187;114.187563;449
"Methodist College";23;"school";"Middle school";"50號 Gascoigne Rd, King's Park";22.309063;114.171938;450
"G.T. (Ellen Yeung) College (Junior Primary Section)";13;"school";"Primary school";"31 Sai Yee St, Mong Kok";22.317813;114.171813;452
"香港香水學校 Hong Kong Perfume School";0;"school";"Educational Institution";"1605, Beverley Commercial Centre, F,, 87-105 Chatham Rd S, Tsim Sha Tsui";22.301438;114.175937;453
"Beacon College";18;"school";"Private school";"301-302,602,701A, 701B, 702A ,702B, Ginza Square, 565-567 Nathan Rd, Yau Ma Tei";22.314687;114.170188;455
"Hong Kong True Light Secondary School";7;"school";"School";"50 Tai Hang Rd, Tai Hang";22.275563;114.194063;457
"Caritas Ling Yuet Sin Kindergarten";9;"school";"Kindergarten";"54 Pok Fu Lam Rd, Sai Wan";22.284937;114.139688;458
"Yaumati Catholic Primary School";0;"school";"Primary school";"41 Tung Kun Street, Yau Ma Tei";22.311313;114.167813;459
"Rosaryhill School Primary Section";6;"school";"Elementary school";"41B Stubbs Rd";22.263563;114.182938;460
"T.W.G.Hs. Lo Yu Chik Primary School";25;"school";"Primary school";"51 Pitt St, Mong Kok";22.314313;114.171187;461
"Top Schools Hong Kong";1;"school";"Educational consultant";"Central, Queen Victoria St, 15號, Yue Shing Commercial Building, 14/F";22.283437;114.155563;462
"Po Kok Primary School";12;"school";"Primary school";"11 Shan Kwong Rd, Happy Valley";22.267313;114.185313;463
"Belilios Public School";37;"school";"Girls' High School";"51號 Tin Hau Temple Rd, North Point";22.285313;114.193312;464
"Full Luck Mahjong School";1;"school";"Education center";"G/F, Kam Po Building, No. 69-73 Woosung Street, Yaumatei, Kowloon, Jordan";22.306938;114.170437;466
"Queen's College";70;"school";"Middle school";"120 Causeway Rd, Causeway Bay";22.281313;114.191437;467
"Wall Street English 英語學院 (銅鑼灣分校) - WSE Causeway Bay Centre";3;"school";"Private school";"19/F, Causeway Bay Plaza Two, 463-483 Lockhart Rd, Causeway Bay";22.280563;114.182188;468
"HK True Light Middle School Primary Section";20;"school";"Primary school";"50 Tai Hang Rd, Causeway Bay";22.276063;114.194688;469
"American International School";39;"school";"International school";"125 Waterloo Rd, Kowloon Tong";22.331687;114.178312;470
"Stamford American";16;"school";"School";"25號 Man Fuk Rd, Ho Man Tin";22.319313;114.178563;471
"Chan's Creative school";18;"school";"School";"71 Boundary St, Yau Yat Chuen";22.327187;114.172563;472
"Confucius Hall Secondary School";15;"school";"Middle school";"77 Caroline Hill Rd, Causeway Bay";22.274563;114.187563;474
"Precious Blood Primary School";10;"school";"Primary school";"72 Sing Woo Rd, Happy Valley";22.266312;114.187937;475
"保良局陳麗玲(百周年)學校";5;"school";"Special education school";"15號 Chi Kiang St, To Kwa Wan";22.314313;114.190563;477
"Kingston International School";12;"school";"International school";"105 & 113 Waterloo Rd, Kowloon Tong";22.327438;114.178063;478
"Diocesan Boys' School Primary Division";0;"school";"School";"131 Argyle St, Kadoorie Hill";22.321312;114.173188;479
"Aoi Pui School";3;"school";"Special education school";"16 Station Ln, Hung Hom";22.307937;114.185938;480
"ESF Lions Football Class at Quarry Bay School";15;"school";"Soccer Practice";"Football pitch, 6 Hau Yuen Path, Quarry Bay";22.284313;114.198438;481
"Pui Ching Primary School";51;"school";"Primary school";"80 Waterloo Rd, Ho Man Tin";22.318188;114.175563;482
"Hin school";0;"school";"School";"9 Hoi Ting Rd, Mong Kok";22.313062;114.165062;484
"Kowloon Junior School";15;"school";"International school";"20 Perth St, Ho Man Tin";22.321688;114.181937;485
"Westbourne School of English";0;"school";"School";"Mong Kok Rd, Mong Kok";22.320813;114.168688;486
"The Hong Kong Polytechnic University Lui Che Woo Building";1;"school";"School";"Hung Hom, 紅磡";22.302812;114.179562;490
"Diocesan Boys’ School Primary Division";6;"school";"Primary school";"131 Argyle St, Kadoorie Hill";22.321312;114.173437;491
"Complete Deelite";4;"school";"Baking supply store";"Central, On Lan St, 2/F On Lan Centre";22.280813;114.156813;492
"Parkview International Pre-School";0;"school";"Kindergarten";"88 Tai Tam Reservoir Rd, Tai Tam";22.257938;114.198687;493
"The International Montessori School Primary Section Stanley Campus";7;"school";"Primary school";"Phase III, Ma Hang Estate, Stanley";22.219437;114.209188;494
"Maryknoll Convent School (Secondary Section)";52;"school";"Catholic school";"5號 Ho Tung Rd, Kowloon Tsai";22.328188;114.179438;495
"Bishop Hall Jubilee School";43;"school";"High school";"Kowloon Tong, Oxford Rd, 2C號";22.329813;114.180938;496
"CUHK MBA Town Centre";1;"school";"Learning center";"Unit B, 1/F, Bank Of America Tower, 12 Harcourt Road, Admiralty";22.280688;114.163063;497
"The Woodland Montessori Pre-School (Repulse Bay)";2;"school";"Preschool";"Shop G118-119, G/F, The Repulse Bay, 109 Repulse Bay Rd, Repulse Bay";22.239063;114.195938;498
"香港理工大學玻璃天幕";1;"school";"School";"Hung Hom Bay";22.304438;114.179688;499
"Concordia International School";14;"school";"International school";"68 Begonia Rd, Yau Yat Chuen";22.331438;114.172312;500
"Homantin Government Secondary School";23;"school";"High school";"8 Perth St, Ho Man Tin";22.321063;114.180313;501
"Hennessy Road Government Primary School (Causeway Bay)";12;"school";"Primary school";"3 Eastern Hospital Rd, Causeway Bay";22.277813;114.188813;502
"X Block, The Hong Kong Polytechnic University";0;"school";"School";"Hung Hom Bay";22.305563;114.180062;503
"Yew Chung International School - Primary Section";1;"school";"School";"11-13 Kent Rd, Kowloon Tong";22.338437;114.176188;505
"The Church of Christ in China Hong Kong Council Hip Woh School (Kindergarten Section)";5;"school";"Kindergarten";"231 Sai Yeung Choi St N, Tong Mi";22.328062;114.167562;506
"ABC Pathways School (黃埔分校 Whampoa Campus)";6;"school";"Education center";"Wonderful Worlds of Whampoa, Treasure World(Site 11), G/F, G27, Hung Hom";22.306063;114.189563;507
"Yew Chung International School - Secondary Section";14;"school";"International school";"3 To Fuk Rd, Kowloon Tong";22.335688;114.177188;508
"Hong Kong Art School";2;"school";"School";"Room 819, 8/F, Youth Square, 238 Chai Wan Road, Chai Wan, Hong Kong, Chai Wan";22.263063;114.236813;510
"H.k.s.p.c. S.i.a. Whampoa Nursery School";4;"school";"Kindergarten";"Hung Hom";22.304688;114.187188;511
"Yew Chung International School - Early Childhood Education";6;"school";"Kindergarten";"151 Waterloo Rd, Kowloon Tong";22.338688;114.178688;512
"Carmel School Association Elsa High School";7;"school";"High school";"460 Shau Kei Wan Rd, Shau Kei Wan";22.276313;114.229813;513
"Kellett School Kowloon Bay";40;"school";"International school";"7 Lam Hing St, Kowloon Bay";22.324688;114.206813;514
"School of Continuing Education, Hong Kong Baptist University - Campus Learning Centre Headquarters";1;"school";"University department";"9 Baptist University Rd, Kowloon Tsai";22.336063;114.182688;515
"The International Montessori School Kindergarten Section Aldrich Bay Campus";0;"school";"School";"G/F, i-UniQ Grand, 155, Shau Kei Wan Rd, Shau Kei Wan";22.280938;114.223437;516
"Hillside International Kindergarten";1;"school";"Kindergarten";"43 Stubbs Rd, Happy Valley";22.266063;114.180062;518
"Delia School of Canada";41;"school";"International school";"Taikoo Shing, Kao Shan Terrace Kam Shan Mansion, Tai Fung Ave, Quarry Bay";22.285938;114.218188;519
"Hong Kong Sheng Kung Hui";6;"school";"Seminary";"1 Glenealy, Central";22.279687;114.155813;520
"Aberdeen Technical School";14;"school";"Technical school";"1 Wong Chuk Hang Rd";22.248813;114.160812;521
"Discovery Bay International School";8;"school";"Primary school";"Discovery Bay Rd, Discovery Bay";22.301312;114.012313;522
"Hong Kong International School";62;"school";"International school";"1 Red Hill Rd, Tai Tam";22.237937;114.223188;523
"Ng Wah Catholic Primary School";27;"school";"Primary school";"5 Choi Hung Rd, Kowloon City";22.333187;114.194938;524
"Yew Chung Int'l Children's Hse (Kent Rd)(A.M.)";0;"school";"Kindergarten";"29號 Kent Rd, Kowloon Tong";22.339813;114.175438;525
"Nord Anglia International School Hong Kong, Primary & Secondary Campus";32;"school";"International school";"11 On Tin Street, Lam Tin";22.309188;114.237938;526
"Fukien Secondary School (Kwun Tong)";44;"school";"Middle school";"83 Chun Wah Rd, Kwun Tong";22.322438;114.221313;527
"City University of Hong Kong Cheng Yick-Chi Building";0;"school";"School";"Kowloon Tong, 達之路83號";22.337063;114.173188;528
"Kwong Wah Hospital";154;"school";"General Hospital";"25號 Waterloo Rd, Yau Ma Tei";22.315063;114.172438;529
"Tsan Yuk Hospital";24;"school";"Government Hospital";"30 Hospital Rd, Sai Ying Pun";22.286188;114.144563;530
"Queen Mary Hospital";156;"school";"Government Hospital";"Queen Mary Hospital Main Block, Pok Fu Lam Rd, High West";22.270313;114.131437;531
"Tung Wah Group Of Hospitals";14;"school";"Hospital";"12 Po Yan St, Sheung Wan";22.285063;114.147062;532
"St Paul's Hospital";109;"school";"Private Hospital";"2 Eastern Hospital Rd, Causeway Bay";22.278438;114.188188;533
"Matilda International Hospital";43;"school";"Private Hospital";"41 Mount Kellett Rd, The Peak";22.259063;114.149313;534
"Kwai Chung Hospital";22;"school";"Hospital";"Kwai Chung Hospital Block L, 3-15 Kwai Chung Hospital Rd, Kwai Chung";22.343438;114.133438;535
"Tung Wah Group of Hospitals Fung Yiu King Hospital";14;"school";"Hospital";"Sandy Bay";22.271437;114.124812;536
"Caritas Medical Centre";32;"school";"Hospital";"Sham Shui Po, Wing Hong St, 111號明愛醫院懷信樓";22.341437;114.153188;537
"Alice Ho Miu Ling Nethersole Hospital_Patient Resource Centres";0;"school";"Community Health Centre";"Tai Po, Chuen On Rd, 11號雅麗氏何妙齡那打素醫院A座地下";22.458563;114.174813;538
"Matilda Medical Centre (Central)";1;"school";"Medical clinic";"502, Prosperity Tower, 39 Queen's Road Central, Central";22.282562;114.156188;539
"Alice Ho Miu Ling Nethersole Hospital_Eye";1;"school";"Ophthalmology clinic";"Tai Po, 新界大埔全安路11號";22.458187;114.174813;540
"威爾斯親王醫院 - 外科";0;"school";"Surgical center";"Prince Of Wales Hospital Li Ka Shing Specialist Clinics South Wing, 30號 Ngan Shing St, Sha Tin";22.378313;114.201313;541
"Department of Surgery,CUHK";0;"school";"Hospital";"Lui Che Woo Clinical Sciences Building (Professorial Block), 30-32 Ngan Shing St, Sha Tin";22.378938;114.200938;542
"Sin Chi Ming Doctors_tsuen Wan";0;"school";"Hospital";"Kwai Chung, 新界荃灣梨木樹邨梨木樹商場1樓120號舖康健綜合醫務中心";22.378313;114.136563;543
"PhiDerma Aesthetics Centre";0;"school";"Medical Center";"8F, Albion Plaza,, 2-6 Granville Road, Tsim Sha Tsui, Tsim Sha Tsui";22.299438;114.172688;544
"Mui Wo Clinic";1;"school";"Medical clinic";"Mui Wo, 大嶼山梅窩銀鑛灣路2號地下及一樓";22.266063;113.997937;545
"Matilda Clinic - Caine Road";0;"school";"Medical clinic";"116 Caine Rd, Mid-level";22.282687;114.150188;546
"University Health Service, HKU";3;"school";"Medical clinic";"Meng Wah Complex, University of Hong Kong, 3f Pok Fu Lam Rd, Pok Fu Lam";22.282313;114.139063;547
"Queen Mary Hospital Staff Canteen";221;"school";"Restaurant";"Queen Mary Hospital Block K, Pok Fu Lam Rd, High West";22.270938;114.130812;548
"Tung Wah Group of Hospitals Social Service";0;"school";"Point of interest";"Tung Wah Hospital, Tai Ping Shan";22.285063;114.146563;549
"Queen Mary Hospital - Emergency Room";9;"school";"Emergency Room";"102 Pok Fu Lam Rd, High West";22.270687;114.131312;550
"Pathology Building, Queen Mary Hospital";4;"school";"102 Pokfulam Road, Southern District, High West";"74CJ+QG Hong Kong";22.271938;114.131312;551
"Kwong Wah Hospital_Accident & Emergency Department";8;"school";"Emergency Room";"25 Waterloo Rd, Yau Ma Tei";22.315437;114.172563;552
"West Kowloon Maternal and Child Health Centre";8;"school";"Child Health Care Centre";"Sham Shui Po, Cheung Sha Wan Rd, 303號西九龍 Cheung Sha Wan Government Offices, 健康中心2字樓";22.331687;114.160438;553
"Accident & Emergency Departments, Queen Elizabeth Hospital";8;"school";"Emergency Room";"30號 Gascoigne Rd, King's Park";22.308188;114.173688;554
"深圳国际施行卫生保健中心深圳口岸医院";0;"school";"Hospital";"China, Guangdong, Shenzhen, Futian, Closed Area, 皇岗口岸生活区2号综合楼 邮政编码: 518033";22.528063;114.080063;555
"7-Eleven - Queen Mary Hospital";2;"school";"Convenience store";"102 Pok Fu Lam Rd, High West";22.270812;114.130938;556
"VSH (Veterinary Specialty Hospital) Hong Kong 專科獸醫醫院";64;"school";"Animal Hospital";"Lucky Centre, 1/F, Lucky Centre, 165-171 Rd, 號 樂 基 中心 1 樓 Lucky Centre, Wan Chai Rd, Wan Chai";22.276938;114.177062;557
"The School of Nursing, Hong Kong Sanatorium & Hospital";5;"school";"Nursing school";"2 Heung Yip Rd";22.248688;114.168938;558
"Hong Kong Baptist Hospital - Block D, Outpatients";2;"school";"Health";"Beacon Hill, 聯合道322號";22.339187;114.179938;559
"Tung Wah Group of Hospitals Museum";1;"school";"Heritage Building";"Mong Kok, Waterloo Rd, 25號號";22.314938;114.171938;560
"The Society of Hospital Pharmacists of Hong Kong";1;"school";"Association or organization";"嘉昌商業中心";22.286938;114.191938;561
"United Christian Hospital Emergency Room";13;"school";"Emergency Room";"130 Hip Wo St, Sau Mau Ping";22.322188;114.227938;562
"Yan Chai Hospital Hong Kong Peninsula Lions Club Elderly Home";2;"school";"Retirement Home";"Tsing Yi, 新界青衣長康邨康順樓三字樓A、C翼及四字樓A、B、C翼";22.350063;114.099938;563
"Tai Wai Small Animal and Exotic Hospital";26;"school";"Animal Hospital";"Tai Wai Sha Tin G/F, Shop C-D, Lap Wo Building, 69-75 Chik Shun St, Tai Wai, Sha Tin";22.376688;114.178937;564
"Pok Oi Hospital Yuen Yuen Institute Children and Families Development Centre";0;"school";"Social services organization";"Nga Ying Chau, 新界青衣長安邨安湖樓103-106室";22.360938;114.104188;565
"Yan Chai Charitable Fund";0;"school";"Charity";"Tsuen Wan, Yan Chai St, 仁 濟 醫院 C 座";22.369563;114.119563;566
"Bank of China (Hong Kong) Bonham Road Branch";1;"school";"Bank";"63 Bonham Rd, Sai Wan";22.284438;114.140813;567
"ICBC (Asia)";2;"school";"Bank";"345 Des Voeux Rd W, Sai Ying Pun";22.287187;114.137437;568
"DBS Bank - West Central Branch";5;"school";"Bank";"441 Queen's Rd W, Sai Wan";22.286188;114.135438;569
"南洋商業銀行";1;"school";"Bank";"334 Des Voeux Rd W, Sai Wan";22.287062;114.138188;570
"Standard Chartered Shek Tong Tsui Branch";5;"school";"Bank";"Shop 8-12, G/F, 455-485 Queen`s Road West, Shek Tong Tsui, Hong Kong, Shek Tong Tsui";22.286437;114.134437;571
"Public Bank Shek Tong Tsui Branch";2;"school";"Bank";"Sai Wan, 德輔道西369號";22.286938;114.135562;572
"HSBC Bonham Road Branch";1;"school";"Bank";"68 Bonham Rd, Sai Wan";22.284313;114.142563;573
"Chong Hing Bank Sai Ying Pun Branch";1;"school";"Bank";"81-85 Des Voeux Rd W, Sheung Wan";22.287938;114.145563;574
"Chong Hing Bank";2;"school";"Bank";"347-349 Des Voeux Rd W, Sai Wan";22.287062;114.136938;575
"Bank of East Asia";1;"school";"Bank";"University Dr, Lung Fu Shan";22.283188;114.134437;576
"United Overseas Bank Limited";3;"school";"Bank";"Central, Garden Rd, 3號";22.278688;114.161063;577
"Dah Sing Bank Shek Tong Tsui Branch";2;"school";"Bank";"Shop 15-16, G/F, 443-453 Queen's Rd W, Shek Tong Tsui";22.286563;114.135062;578
"創興銀行";2;"school";"ATM";"Sai Wan, 德輔道西347號";22.287062;114.136688;579
"HSBC Des Voeux Road West Branch Premier Centre";2;"school";"Bank";"40-50 Des Voeux Rd W, Sheung Wan";22.287563;114.146938;580
"Bank of Communications Kennedy Town Sub-Branch";1;"school";"Bank";"113-119 Belcher's St, Sai Wan";22.282687;114.128063;581
"Wing Lung Bank Western District Branch";2;"school";"Bank";"262 Queen's Rd W, Sai Wan";22.286813;114.142937;582
"China Construction Bank (Asia) Sai Wan Branch";3;"school";"Bank";"489 Queen's Rd W, Sai Wan";22.286688;114.133938;583
"ATM (HSBC)";0;"school";"ATM";"40-50 Des Voeux Rd W, Sheung Wan";22.287438;114.146938;584
"中國工商銀行(亞洲)西環個人理財中心";0;"school";"Bank";"地下2號舖, 345 - 345A Des Voeux Rd Central, Sai Wan";22.287187;114.137313;585
"Public Bank";0;"school";"Bank";"Des Voeux Rd Central, Central";22.283938;114.156438;586
"Hang Seng Bank Sheung Wan Branch";5;"school";"Bank";"Sheung Wan, Shop 9-10Tung Ning Building251 Des Vouex Road Central";22.286688;114.152313;587
"中國工商銀行（亞洲）西環分行";0;"school";"Bank";"Sai Wan, 皇后大道西242號";22.286813;114.143188;588
"星展銀行德輔道中分行";4;"school";"Bank";"Central, 地庫、地下及 1 樓中環德輔道中39-41 號";22.283312;114.157063;589
"Bank of America Merrill Lynch";3;"school";"Financial consultant";"Cheung Kong Centre, 2 Queen's Road Central, Central";22.279562;114.160563;590
"Bank of Hawaii";1;"school";"Bank";"Sheung Wan, 無限極廣場";22.286563;114.153687;591
"Bank of East Asia Bonham Road Branch";3;"school";"Bank";"Ka Fu Building, 19-27 Bonham Rd, Sai Wan";22.284563;114.142438;592
"Bank of China (Hong Kong) Shek Tong Tsui Branch";1;"school";"Bank";"534 Queen's Rd W, Sai Wan";22.286063;114.134437;593
"Hang Seng Bank - Central Prestige Banking Centre";4;"school";"Bank";"B/F Loke Yew Building, 50-52 Queen's Road Central, Central";22.282188;114.156062;594
"大新銀行石塘咀分行";0;"school";"ATM";"Sai Wan";22.286188;114.135062;595
"ATM (Bank of China)";1;"school";"ATM";"63 Bonham Rd, Sai Wan";22.284313;114.140688;596
"E.SUN Commercial Bank (Hong Kong Branch)";2;"school";"Bank";"Suites 2805-2812, 28/F, Tower 6, the Gateway, 25 Canton Road, Tsimshatsui, Kowloon, Hong Kong., Tsim Sha Tsui";22.297313;114.168313;597
"Dah Sing Bank Admiralty Centre Branch";0;"school";"Bank";"Shop No. 10, 1st Floor of the Podium, Admiralty Centre, No. 18 Harcourt Road Admiralty, Admiralty";22.279562;114.164938;598
"Wing Lung Bank";5;"school";"Bank";"45 Des Voeux Rd Central, Central";22.283312;114.156938;599
"Standard Chartered Bank ATM";3;"school";"ATM";"Sai Wan, 皇后大道西455號";22.286437;114.134437;600
"Public Bank (Hong Kong) Western Branch";1;"school";"Bank";"Kam Kwan Building, G/F, 2-3, Sai Wan";22.288063;114.143437;601
"中信嘉華銀行皇后大道西分行";1;"school";"Bank";"Sai Wan, 皇后大道西488號";22.285938;114.135562;602
"Bank of China (Hong Kong) Des Voeux Road West Branch";3;"school";"Bank";"111-119 Des Voeux Rd W, Sai Wan";22.287938;114.144563;603
"Bank of Taiwan Hong Kong Branch";0;"school";"Bank";"Central Tower, 23/F, 28 Queen's Road Central, Central";22.281187;114.156813;604
"HSBC Exchange Square Branch & Premier Centre";12;"school";"Bank";"Exchange Square Podium, 8 Connaught Pl, Central";22.283437;114.158437;605
"華僑永亨銀行ATM";0;"school";"ATM";"Sai Wan, 德輔道西139～141";22.288063;114.144188;606
"Hang Seng Bank ATM - Shek Tong Tsui Automated Banking Centre";3;"school";"ATM";"363 Des Voeux Rd W, Shek Tong Tsui";22.286938;114.136312;607
"CIMB Bank Berhad, Hong Kong Branch";0;"school";"Bank";"Central, Queen's Road Central, 15號Gloucester Tower The Landmark25/F";22.281563;114.157813;608
"Bank of China (Hong Kong) Kennedy Town Branch";7;"school";"Bank";"Sai Wan, 吉席街2號";22.283563;114.129438;609
"Ka Wah Bank Centre";0;"school";"Bank";"Ka Wah Bank Centre, 232 Des Voeux Rd Central, Sheung Wan";22.286188;114.152688;610
"Hang Seng Bank - Hankow Road Branch";6;"school";"Bank";"4 Hankow Rd, Tsim Sha Tsui";22.295937;114.171313;611
"China CITIC Bank International Limited";1;"school";"Bank";"Wing Yue Building, G/F,, 60-64 Des Voeux Rd W, Sheung Wan";22.287563;114.146563;612
"Bank Of Communication";0;"school";"Bank";"113 Belcher's St, Sai Wan";22.282687;114.128063;613
"Bank of East Asia, iSquare Branch";5;"school";"Bank";"63 Nathan Rd, Tsim Sha Tsui";22.296687;114.171938;614
"花旗銀行(香港) – 自動櫃員機/ Citibank Hong Kong – ATM";1;"school";"ATM";"Lower Ground Floor, The Westwood of The Belcher's, 8 Belcher's Street Sai wan, Shek Tong Tsui";22.285687;114.132938;616
"HSBC 128 Queen's Road Central Branch";7;"school";"Bank";"128-40 Queen's Road Central, Central";22.284062;114.154187;617
"LGT Bank (Hong Kong)";1;"school";"Bank";"4203 Two Exchange Square, 8 Connaught Place Central, Central";22.283688;114.158313;618
"Bank Consortium Trust Company Limited";3;"school";"Bank";"Cosco Tower, Sheung Wan";22.285687;114.152938;620
"Jetco - Bank of East Asia Caine Road Branch";1;"school";"Bank";"63-69 Caine Rd, Central";22.281187;114.152313;621
"Silicon Valley Bank";0;"school";"Bank";"Jardine House, Suite 801, 8/F, 1 Connaught Pl, Central";22.283188;114.159188;622
"Fubon Bank Western District Branch";0;"school";"Bank";"44-46 Belcher's St, Kennedy Town";22.282813;114.129438;623
"Chiyu Bank Head Office";1;"school";"Bank";"78 Des Voeux Rd Central, Central";22.283938;114.156062;624
"Bank of China (Hong Kong) Connaught Road Central Branch";3;"school";"Bank";"14 Connaught Rd Central, Central";22.282938;114.157813;625
"ICICI Bank Limited";5;"school";"Bank";"Chuang's Tower, 號 1 樓 102-103 室, 30-32 Connaught Rd Central, Central";22.283563;114.157063;626
"JETCO - Public Bank (Hong Kong) Western Branch";0;"school";"ATM";"163-167 Des Voeux Rd W, Sai Wan";22.288063;114.143437;627
"HSBC Holdings plc";8;"school";"Bank";"Central, 中環 皇后大道中1號";22.280063;114.159438;628
"中國工商銀行(亞洲)香港大學站自動櫃員機";0;"school";"ATM";"港鐵香港大學站B出口, Shek Tong Tsui";22.285813;114.132562;630
"Jetco - Wing Lung Bank Kennedy Town Branch";0;"school";"ATM";"28 Catchick St, Sai Wan";22.283188;114.128312;631
"Hang Seng Bank ATM";0;"school";"ATM";"Sheung Wan, Des Voeux Rd Central, 251號東寧大廈地下";22.286688;114.152313;632
"HSBC International Business Centre";2;"school";"Bank";"Hsbc Centre Tower 2, 1 Sham Mong Rd, No. 12 Hill";22.318813;114.161063;633
"Hang Seng Bank ATM - MTR HKU station";0;"school";"ATM";"HKU MTR station, Pok Fu Lam";22.283938;114.135062;634
"滙豐銀行(櫃員機)";0;"school";"ATM";"1-3 Peng Chau Wing Hing St, Peng Chau";22.284563;114.038812;635
"Melli Bank PLC";0;"school";"Bank";"花園道三號冠君大廈2010-2011室, Central";22.278563;114.160688;636
"中國工商銀行(亞洲)-堅道分行";0;"school";"Bank";"地下, Caine Building, 22號 Caine Rd, Wan Chai";22.279938;114.153562;637
"Public Bank (Hong Kong) Aberdeen Branch";1;"school";"Bank";"Aberdeen, Aberdeen Main Rd, Shop C, G/F, Kong Kai Building, 184";22.249563;114.155563;638
"Agricultural Bank of China Building";1;"school";"Bank";"50 Connaught Rd Central, Central";22.285063;114.155813;639
"南洋商業銀行ATM";0;"school";"ATM";"Sheung Wan, 皇后大道中359～361";22.286063;114.149313;640
"Hang Seng Bank ATM - MTR Kennedy Town Station";1;"school";"ATM";"22.281254, 114.128614, MTR, Kennedy Town Station, Kennedy Town";22.281313;114.128563;641
"Standard Chartered Aberdeen Branch";1;"school";"Bank";"Aberdeen Centre Hoi Tsing Court, 6-, 12 Nam Ning St, Aberdeen";22.248188;114.153687;642
"Royal Bank of Canada";2;"school";"Bank";"Suite 5101, 5102 and 5108, 51st Floor Central Plaza, 18 Harbour Road, Wanchai, Hong Kong, Wan Chai";22.279813;114.173813;643
"Bank of China (Hong Kong) Cheung Chau Branch";1;"school";"Bank";"Cheung Chau, 大新街53-55號";22.207063;114.029188;644
"Standard Chartered Bank";4;"school";"Bank";"Tsim Sha Tsui, 彌敦道68";22.297938;114.172312;645
"China Construction Bank";0;"school";"ATM";"239 Des Voeux Rd Central, Sheung Wan";22.286688;114.152563;646
"怡和街分行 (Yee Wo Street Branch) - CITIBANK HONG KONG";2;"school";"Bank";"G/F & 1/F, Hong Kong Chinese Bank Causeway Bay Center, 42-44 Yee Wo Street, Causeway Bay";22.279562;114.185688;647
"HSBC Causeway Bay HSBC Business Centre";15;"school";"Bank";"Causeway Bay, Lockhart Rd, 463-483號, Lippo House (causeway Bay Plaza 2), 14th floor";22.280563;114.182063;650
"Hang Seng Bank ATM - MTR Sheung Wan Station (Central Concourse)";0;"school";"ATM";"MTR Sheung Wan Station, Sheung Wan";22.286688;114.152063;651
"東亞銀行ATM";0;"school";"ATM";"Central";22.281187;114.152313;652
"Macquarie Bank Limited";3;"school";"Investment Bank";"Central, 香港中環港景街1號國際金融中心第1期18樓";22.284937;114.156813;653
"Heng Sang Bank";3;"school";"Bank";"Tsing Yi, 青衣城, 1/F, 108B舖";22.359312;114.108438;655
"Hang Seng ATM - MTR Kowloon Station";0;"school";"Bank";"22.304315, 114.161485, West Kowloon";22.304312;114.161437;656
"Nanyang Commercial Bank ATM";1;"school";"ATM";"86 Belcher's St, Kennedy Town";22.282562;114.128312;657
"HSBC South Horizons Express Banking";0;"school";"ATM";"Marina Square West Centre, 12A South Horizon Drive, Ap Lei Chau";22.244188;114.147188;658
"匯豐日夜理財中心";5;"school";"Bank";"Tai Wai, 沙田大圍顯徑商場 B 翼地下 120 號舖";22.362937;114.171687;659
"HSBC Cheung Sha Wan Commercial Service Centre";1;"school";"Bank";"Long To Building, G/F,, 654-656 Castle Peak Rd, Cheung Sha Wan";22.338563;114.148312;660
"國際個人銀行服務中心旺角分行 International Personal Banking Center - Mongkok - CITI HK";0;"school";"Bank";"Shop 8, G/F – 2/F, Wai Fung Plaza, 664 Nathan Road, Mong Kok";22.319187;114.169812;661
"China Construction Bank (Asia) Mei Foo Branch";2;"school";"Bank";"1-3 Mount Sterling Mall, Mei Foo Sun Chuen";22.337938;114.139812;662
"Hang Seng Bank";4;"school";"Bank";"Tung Chung, TUC9 MTR Station Tung Chung Tung Chung";22.289063;113.941063;663
"Bank of China (Hong Kong) Tuen Mun San Hui Branch";2;"school";"Bank";"112-140 Tuen Mun Heung Sze Wui Rd, San Hui";22.398188;113.975313;665
"中國銀行（香港）屯門花園分行";6;"school";"Bank";"Tuen Mun, 青海圍";22.389188;113.978812;666
"滙豐銀行ATM";1;"school";"ATM";"Discovery Bay";22.295438;114.016188;667
"中國銀行自動櫃員機";1;"school";"ATM";"1 Fung Shue Wo Rd, Tsing Yi";22.353188;114.109063;668
"渣打銀行";0;"school";"Bank";"號, 1027 King's Rd, Quarry Bay";22.284812;114.212813;669
"Hang Seng Bank ATM - MTR Disneyland Resort Station";3;"school";"ATM";"MTR Disneyland Resort Station, Lantau Island";22.315437;114.045562;672
"DBS Tuen Mun Town Plaza Branch";2;"school";"ATM";"Tuen Mun, 屯門市廣場 1 樓 39-42 號舖屯門屯隆街 3 號";22.394063;113.976437;674
"Bank of China";1;"school";"Bank";"Chek Lap Kok";22.316812;113.936563;675
"愉景灣銀行服務中心";1;"school";"Bank";"Lantau Island, Plaza Ln, 2號C 號 Discovery Bay Office Centre, 座地下G28 舖";22.295312;114.016687;676
"Hang Seng Bank ATM - MTR Sunny Bay Station";1;"school";"ATM";"MTR Sunny Bay Station, Lantau Island";22.331687;114.028938;677
"Bank of China (Hong Kong) Tin Shui Estate Branch";5;"school";"Bank";"9 Tin Shui Rd, Tin Shui Wai";22.456188;113.998813;679
"永隆銀行";0;"school";"ATM";"Tuen Mun, 鄉事會路42號";22.396188;113.974813;680
"Public Bank (Hong Kong) Tuen Mun Sub-Branch";1;"school";"Bank";"1-7 Kai Man Path, San Hui";22.395812;113.975062;682
"Hang Seng Bank Yuen Long Branch";4;"school";"Bank";"93 Castle Peak Road (Yuen Long), Yuen Long";22.444688;114.029188;683
"東亞銀行嘉湖山莊分行";7;"school";"Bank";"Tin Shui Wai";22.457063;114.003563;686
"The Bank of East Asia";0;"school";"Bank";"33 Tat Tung Rd, Tung Chung";22.288938;113.942438;687
"星展銀行分店";1;"school";"Bank";"屯 門市 廣場 第 2 期 地下, Tuen Mun";22.393938;113.976188;689
"Wing Lung Tuen Mun Branch";2;"school";"Bank";"42 Tuen Mun Heung Sze Wui Rd, San Hui";22.396313;113.974813;690
"中國建設銀行(亞洲)";8;"school";"Bank";"3 Tuen Lung St, Tuen Mun";22.394187;113.976063;692
"HSBC Easi-banking Centre";1;"school";"ATM";"288 Queen's Rd W, Sai Ying Pun";22.286813;114.142438;693
"Hang Seng Bank ATM - Discovery Bay North Plaza";1;"school";"ATM";"1/F, Discovery Bay North Plaza , Discovery Bay, Lantau Island";22.294313;114.015313;694
"屯門分行 (Tuen Mun Branch) - Citibank Hong Kong";2;"school";"Bank";"102, 101, 1 Tuen Lung St, Tuen Mun";22.393563;113.975313;695
"Standard Chartered";1;"school";"ATM";"2A Tuen Mun Heung Sze Wui Rd, Tuen Mun";22.388563;113.975062;696
"Hang Seng Bank ATM - MTR Tung Chung Station";7;"school";"ATM";"MTR Tung Chung Station, Tung Chung Lantau Island";22.288938;113.940812;697
"Bank of East Asia ATM";0;"school";"ATM";"Tuen Mun";22.381063;113.978187;699
"Bank of China (Hong Kong) ATM";2;"school";"ATM";"1/F, North Lantau Hospital,, Tung Chung";22.282188;113.939187;701
"Hang Seng Bank ATM - North Lantau Hospital";1;"school";"ATM";"Level 1, North Latau Hospital, Tung Chung";22.282063;113.939313;702
"Hang Seng Bank ATM - Caribbean Square";5;"school";"ATM";"1 Kin Tung Rd, Tung Chung";22.291938;113.949312;704
"HSBC ATM";0;"school";"ATM";"Guangdong Investment Building, G/F, A, Sheung Wan";22.287062;114.151063;705
"Commonwealth Bank of Australia";2;"school";"Banking and Finance";"One Exchange Square, 8 Connaught Pl, Central";22.283813;114.158437;707
"Pardeshe.";0;"school";"ATM";"9-15 Sai Yuen Lane, 9-15 Sai Yuen Ln, Sai Ying Pun";22.287438;114.141687;708
"ATM in MTR (BOC)";0;"school";"ATM";"Sai Ying Pun Station Exit C, W End Path, Sai Ying Pun";22.285562;114.142688;709
"HSBC Bonham Road Branch ATM";0;"school";"ATM";"Mid-level";22.284438;114.142563;710
"西營盤站A1出口";5;"school";"ATM";"23 Tsz Mi Alley, Sai Wan";22.287187;114.144438;711
"Oversea-Chinese Banking Corporation Ltd.";0;"school";"Corporate office";"Central, 香港中環皇后大道中9號9樓";22.280313;114.158313;712
"Corporation Bank";0;"school";"Point of interest";"Rm. 1304, 13/Floor Lippo Centre, Tower 2 89 Queensway Admiralty Hong Kong, Admiralty";22.279438;114.163312;713
"shusheung tak";0;"school";"ATM";"142 Bonham Strand, Sheung Wan";22.286437;114.149188;714
"Land Bank of Taiwan Co., Ltd.";0;"school";"Point of interest";"Unit 3101-06 & 12, Tower 1, the Gateway, No.25 Canton Road, Tsimshatsui, Kowloon., Tsim Sha Tsui";22.299438;114.167813;715
"Bank of China Tower";751;"school";"Tower";"1 Garden Rd, Central";22.279313;114.161437;716
"工銀亞洲(櫃員機)";0;"school";"ATM";"220 Des Voeux Rd Central, Sheung Wan";22.286188;114.152938;717
"Royal Bank of Scotland Public Limited Company, The";1;"school";"Point of interest";"7-8/F, 13-14/F and 16/F, Lincoln House, 979 King's Road, Hong Kong, Quarry Bay";22.287313;114.210438;718
"Café Hunan";26;"school";"Restaurant";"420-424 Queen's Rd W, Shek Tong Tsui";22.286312;114.138813;719
"Bayi";206;"school";"Asian restaurant";"G/F, 43 Water St, Western District";22.285313;114.139063;720
"Chau Kee";319;"school";"Dim Sum restaurant";"Tung Lee Mansion, 地下 H1 號 舖, 1C-1K Water St, Sai Ying Pun";22.286938;114.138813;721
"New One Cafe";13;"school";"Chinese restaurant";"Sai Wan, 西環西營盤皇后大道西416號";22.286563;114.138938;722
"Ka Kee Restaurant";2;"school";"Restaurant";"438 Queen's Rd W, Sai Wan";22.286312;114.138562;723
"junelsrestobar Filipino Restaurant and Karaoke";34;"school";"Filipino restaurant";"11 Lai On Lane, Water St, Sai Ying Pun";22.287187;114.139312;724
"Cafe Hunan 書湘門第";73;"school";"Xiang cuisine restaurant";"Sai Wan, 西環皇后大道西420-424號冠華大廈地下B號舖";22.286312;114.138813;725
"Fire Well Hot Pot and Seafood Restaurant";103;"school";"Hot pot restaurant";"419 Queen's Rd W, Sai Wan";22.286437;114.137937;726
"Wing Hop Sing";84;"school";"Rice restaurant";"号地铺, 360 Des Voeux Rd West 西环, 360 Des Voeux Rd W, Sai Ying Pun";22.287062;114.137688;727
"Kwong Kee Restaurant";69;"school";"Chinese restaurant";"Sai Wan, 西環水街6B地下";22.286188;114.139187;728
"Buddy House Japanese Cuisine";50;"school";"Japanese restaurant";"31 Water St, Sai Ying Pun";22.285562;114.139063;729
"OPPA Chicken";56;"school";"Korean restaurant";"Shek Tong Tsui, On Ning Ln, 1-15號Shop 1J Tung Lee Mansion";22.286938;114.138813;730
"Hung Hing Restaurant";157;"school";"Chinese restaurant";"Hang Fai Building, 22-32 Pok Fu Lam Rd, Sai Ying Pun";22.285813;114.140063;732
"Classified Sai Ying Pun";147;"school";"Western restaurant";"Shop 1B, G/F, Upton Tower, 345 Des Voeux Road West, Sai Ying Pun";22.287187;114.137313;733
"Sheng Tao Sha Restaurant";0;"school";"Restaurant";"Sai Wan, 西環水街1C-1K號東利大樓地下A2-A3舖";22.286938;114.138813;734
"Chui Yun Restaurant";144;"school";"Restaurant";"Sai Wan, 西環屈地街44號地下";22.286188;114.136563;735
"Lavender Restaurant";0;"school";"Restaurant";"Sai Wan, Western District 水街9號A舖";22.286188;114.138938;736
"Kam Cheung Spare Ribs Noodle";288;"school";"Chinese noodle restaurant";"Sai Wan, 西環西營盤德輔道西316號地下C舖";22.287187;114.138813;737
"Dongnan Restaurant";7;"school";"Chinese restaurant";"Sai Wan, 第三街148";22.285687;114.139438;738
"Kam Hing Chiuchow Restaurant";60;"school";"Asian restaurant";"Sai Wan, Queen's Rd W, 406-408號號地下";22.286563;114.139312;739
"Amy's Kitchen";175;"school";"Western restaurant";"Sai Wan, Des Voeux Rd W, 352號";22.287062;114.137937;740
"Yardbird";451;"school";"Yakitori restaurant";"154-158 Wing Lok St, Sheung Wan";22.287187;114.149063;741
"BlackSalt";91;"school";"Asian fusion restaurant";"14 Fuk Sau Ln, Sai Ying Pun";22.285813;114.140437;742
"Northern Dumpling Yuan";35;"school";"Chinese restaurant";"Sai Wan, 西環水街1號地下";22.287062;114.138813;743
"238 restaurant";60;"school";"Restaurant";"238 Hollywood Rd, Tai Ping Shan";22.285938;114.147188;745
"鴻興茶餐廳";3;"school";"Restaurant";"Hang Fai Building, 127B Third St, Sai Ying Pun";22.285813;114.140063;746
"Potato Head Hong Kong";362;"school";"Restaurant";"100號 Third St, Sai Ying Pun";22.285687;114.140437;747
"大頭蝦餐廳 King Prawn Restaurant";2;"school";"Restaurant";"352 Des Voeux Rd W, Shek Tong Tsui";22.287187;114.137813;748
"Viet Chiu Vietnamese Restaurant";74;"school";"Vietnamese restaurant";"406B Des Voeux Rd W, Sai Wan";22.286688;114.136312;749
"Fish School";64;"school";"Seafood restaurant";"100 Third St, Sai Ying Pun";22.285562;114.140313;750
"Blue Mountain Restaurant";1;"school";"Chinese restaurant";"G/F, 420 Queen's Road West, Western District, Sai Wan";22.286437;114.138813;751
"Locofama";116;"school";"Organic restaurant";"9, 13 Fuk Sau Ln, Sai Ying Pun";22.285938;114.140313;752
"She Wong Hoi Restaurant";73;"school";"Chinese restaurant";"119 First St, Sai Ying Pun";22.286688;114.141062;753
"Chautari Restaurant";54;"school";"Indian restaurant";"Sheung Wan, 上環皇后街1號熟食市場1樓CF6號舖";22.287438;114.147313;754
"Café Malacca";189;"school";"Malaysian restaurant";"508 Queen's Rd W, Shek Tong Tsui";22.286188;114.134937;755
"Zhen Restaurant Contemporary Dim Sum";84;"school";"Cantonese restaurant";"Shek Tong Tsui, Hill Rd, 48-52號號 地下 C 舖 Nam Cheong Building";22.285063;114.135438;756
"Modern Fast Food Restaurant";13;"school";"Chinese restaurant";"Fung Shing Building, 168 Connaught Rd W, Sai Wan";22.287938;114.138562;757
"Shop9 Restaurant and Lounge";37;"school";"Continental restaurant";"Hang Fai Building, 127B Third St, Sai Ying Pun";22.285813;114.140063;758
"Cafe Malacca at Hotel Jen Hong Kong";41;"school";"Asian restaurant";"Queen's Rd W, Sai Wan";22.285938;114.134937;759
"COBO HOUSE";64;"school";"Restaurant";"Shek Tong Tsui, South Ln, 812號HKU MTR Station Exit B2";22.285562;114.134563;760
"Trattoria Caffe Monteverdi";66;"school";"Italian restaurant";"Sai Ying Pun, 西環 西營盤 高街 6A號 地下 6A G/F High Street";22.285063;114.142937;761
"Tasty and Seasonal Restaurant";134;"school";"Seafood restaurant";"Shek Tong Tsui, 德輔道西434號均益大廈一期地下四號鋪";22.286938;114.134563;763
"ethos";98;"school";"Western restaurant";"G/F, 93-99 Hill Road, Sai Wan, Hong Kong (HKU station exit A1, Shek Tong Tsui";22.284438;114.136688;764
"Cafe&Cafe&Cafe";17;"school";"Restaurant";"Sai Wan, Eastern Street 1st Second Ave";22.286188;114.143563;765
"Meeting Point";46;"school";"Western restaurant";"188 Connaught Rd W, Sai Wan";22.286938;114.135813;766
"Tung Nam Restaurant";1;"school";"Chinese restaurant";"G/F, 148 Third Street, Western District, Sai Wan";22.285813;114.139688;767
"Bijas Vegetarian Restaurant";184;"school";"Vegan restaurant";"Run Run Shaw Tower, Centennial Campus, Pok Fu Lam Rd, Mid-level";22.283813;114.134063;768
"Hong Lok Restaurant";13;"school";"Chinese restaurant";"Sai Wan, 西環第一街102號地下";22.286563;114.140688;769
"Flying Pig Bistro";219;"school";"Restaurant";"62 High St, Sai Ying Pun";22.285188;114.141562;770
"China-West Frangrance Food Restaurant";35;"school";"Mandarin restaurant";"406-408d Des Voeux Road West, Des Voeux Rd W, Shek Tong Tsui";22.286563;114.136312;771
"Mori You Japanese Restaurant";18;"school";"Japanese restaurant";"Shop C, G/F., 38-42 Eastern Street, Sai Ying Pun, Hong Kong, Tai Ping Shan";22.286563;114.143813;772
"Ollies Cafe & Restaurant";100;"school";"Western restaurant";"56 High St, Sai Ying Pun";22.285063;114.141813;773
"VEA Restaurant & Lounge";103;"school";"Restaurant";"29 & 30/F, 198 Wellington Street, Central";22.284937;114.152938;774
"Clipper Lounge";164;"school";"Buffet restaurant";"5 Connaught Rd Central, Central";22.281938;114.159438;775
"Tak Hing Yuen Seafood Restaurant";0;"school";"Restaurant";"2/F & 3/F, Pacific Plaza, 410-418 Des Voeux Road West, Western District, Sai Wan";22.286563;114.135687;776
"Po Lin Yuen Vegetarian Food";57;"school";"Vegetarian restaurant";"Sai Wan, 西環皇后大道西308號地下";22.286813;114.141813;777
"Nice Restaurant";266;"school";"Western restaurant";"Sai Wan, 西環皇后大道西335號";22.286938;114.141313;778
"Indian Spices";63;"school";"Indian restaurant";"Sai Ying Pun, High St, 72號香港島, 西环 地下10號舖";22.285063;114.141313;779
"Tai O Cafe Kitchen";85;"school";"Restaurant";"Goa Building, 地下, 西環山道20-24號高雅大廈, Hill Rd, Sai Wan";22.285562;114.134937;780
"Sup 1";44;"school";"Fusion restaurant";"Lai Yin Court, High St, Sai Ying Pun";22.285188;114.141062;781
"Little Bao";592;"school";"Chinese restaurant";"66 Staunton St, Central";22.282938;114.151563;782
"Bibo";119;"school";"French restaurant";"163 Hollywood Rd, Sheung Wan";22.284313;114.150062;783
"OKRA Hong Kong";90;"school";"Japanese restaurant";"110 Queen's Rd W, Sai Ying Pun";22.286188;114.146063;784
"孖寶冰室 MaBo Restaurant Cafe";8;"school";"Restaurant";"233 Des Voeux Rd W, Sai Ying Pun";22.288063;114.141687;785
"Chinese Banquet";156;"school";"Cantonese restaurant";"Sai Wan, Des Voeux Rd W, 308號香港華美達酒店地下";22.287313;114.139063;786
"Tak Lee Chiu Chow Restaurant";2;"school";"Asian restaurant";"G/F 299 Des Voeux Road W, Western District, Sai Wan";22.287812;114.139438;787
"Sportful Garden Restaurant";108;"school";"Cantonese restaurant";"Sai Wan, Queen's Rd W, 409號怡景花園地下";22.286563;114.138313;788
"Ming Fa Xiao Chu Dim Sum Restaurant";12;"school";"Chinese restaurant";"Sai Wan, 般咸道49號";22.284812;114.141313;789
"Sammy's Kitchen";211;"school";"Western restaurant";"204～206 Queen's Rd W, Sai Ying Pun";22.286813;114.144188;790
"怡心粥店 Yee Sum Congee Restaurant";0;"school";"Chinese restaurant";"482 Queen's Rd W, Sai Wan";22.285687;114.135687;791
"Siji Dim Sum Restaurant";10;"school";"Chinese restaurant";"Sai Wan, 西環西營盤高街34號地下";22.285188;114.142313;792
"Soo Viet";87;"school";"Vietnamese restaurant";"247 Des Voeux Rd W, Sai Ying Pun";22.288063;114.141313;793
"Yee King Restaurant";3;"school";"Chinese restaurant";"G/F, 554 Queen's Rd W,, Western District, Sai Wan";22.286312;114.134063;794
"Union Restaurant (EAT)";1;"school";"Restaurant";"4/F, Haking Wong Building, Pok Fu Lam Rd, Lung Fu Shan";22.283188;114.136312;795
"La Paloma - Sexy Tapas";208;"school";"Spanish restaurant";"189 Queen's Rd W, Sai Ying Pun";22.287313;114.144938;796
"Gough's on Gough";121;"school";"Restaurant";"15 Gough St, Central";22.284187;114.152688;797
"Mon Wah Tong Kitchen";8;"school";"Chinese restaurant";"Sai Wan, 西環皇后大道西326號地下";22.286813;114.141438;798
"Tulsi & Wine";85;"school";"Indian restaurant";"Shop 10 - 11, 63 Bonham Rd, Mid-level";22.284438;114.140813;800
"Yi Fu Restaurant";9;"school";"Chinese restaurant";"67 Third St, Sai Ying Pun";22.285687;114.142063;801
"Belon";80;"school";"French restaurant";"41 Elgin St, Central";22.281563;114.152313;802
"Tianjin Style Restaurant";78;"school";"Beijing restaurant";"Sai Wan, Des Voeux Rd W, 418號號 Pacific Plaza";22.286563;114.135687;803
"Luen Wah Cafe";155;"school";"Restaurant";"Sai Wan, 西環正街 28 號地下";22.287313;114.142187;804
"Rainbow Fast Food Restaurant";3;"school";"Hong Kong style fast food restaurant";"華洋樓地下, 福43～53號 Lyttelton Rd, Mid-level";22.283437;114.141813;805
"Tak Kee Chiu Chow Restaurant";2;"school";"Restaurant";"Belcher's St, Sai Wan";22.285562;114.132313;806
"San Yang Restaurant";174;"school";"Chinese restaurant";"Kaiser Centre, 18 Centre St, Sai Ying Pun";22.287563;114.142187;807
"Bombay Dreams";393;"school";"Indian restaurant";"Central, Wyndham St, 77號, Carfield Commercial Building, 4樓";22.281812;114.154688;808
"CHINO";113;"school";"Mexican restaurant";"1B New Praya Kennedy Town, Kennedy Town";22.284062;114.128937;809
"Ming Fung Cantonese Restaurant";20;"school";"Cantonese restaurant";"Second St, Sai Ying Pun 1 號, 1 Second St, Sai Ying Pun";22.286188;114.143563;810
"Se Wong Kau Snake Restaurant";7;"school";"Chinese restaurant";"Sai Wan, 西環皇后大道西455-485號龍暉花園21號舖地下";22.286437;114.134188;811
"Duo Wing Restaurant";0;"school";"Chinese restaurant";"G/F, 280 Queen's Road West,, Western District, Sai Wan";22.286938;114.142438;812
"Shun Pak Roasted Meat Restaurant";0;"school";"Chinese restaurant";"G/F, Sun Sing Bldg., 330A Queen's Rd West, Western District, Sai Wan";22.286938;114.141313;813
"龍寶酒家 Dragon Palace Restaurant";13;"school";"Chinese restaurant";"455 Queen's Rd W, Shek Tong Tsui";22.286437;114.134688;814
"Ying Kee Hotpot Seafood Restaurant";239;"school";"Hot pot restaurant";"19 Wilmer St, Western District";22.287938;114.144938;815
"Man Wah";72;"school";"Chinese restaurant";"5 Connaught Rd Central, Central";22.281938;114.159188;817
"Amber";141;"school";"15 Queen's Road Central, Central";"Located in: The Landmark, Mandarin Oriental";22.280563;114.157688;818
"Crystal Palace Restaurant";2;"school";"Restaurant";"Sai Wan, Western District 日富里7-13號地舖";22.285938;114.133938;819
"Brother Seafood Restaurant";60;"school";"Seafood restaurant";"Sai Wan, 西環皇后大道西210-218號A舖";22.286813;114.144062;820
"Ping Kee Thai Restaurant";20;"school";"Thai restaurant";"153-155 Third St, Sai Ying Pun";22.285938;114.139063;821
"8 1/2 Otto E Mezzo Bombana";187;"school";"Italian restaurant";"Shop 202, 18 Chater Rd, Central";22.281563;114.158813;822
"One Restaurant";3;"school";"Restaurant";"Sai Wan, 皇后大道西306號地下";22.286813;114.141938;823
"Mott32";715;"school";"Chinese restaurant";"Standard Chartered Bank Building, 4-4A Des Voeux Rd Central, Central";22.280437;114.159062;824
"Star Seafood Restaurant";450;"school";"Cantonese restaurant";"271 Des Voeux Rd W, Sai Ying Pun";22.288188;114.140688;825
"La Brata";67;"school";"Restaurant";"11 Old Bailey St, Central";22.281688;114.153438;826
"Pierre";70;"school";"French restaurant";"5 Connaught Rd Central, Central";22.281938;114.159313;827
"La Vache!";394;"school";"French steakhouse restaurant";"48 Peel St, Central";22.282438;114.152688;828
"Upper Modern Bistro";112;"school";"Restaurant";"6-14 Upper Station St, Sheung Wan";22.285188;114.148563;829
"San Sam Hing Restaurant";26;"school";"Chinese restaurant";"Sai Wan, 西環正街21號地下";22.287187;114.142438;830
"Shun Fat Restaurant";0;"school";"Chinese restaurant";"G/F, 216A Queen's Road West, Western District, Sai Wan";22.286938;114.143937;831
"Maxim's MX";96;"school";"Hong Kong style fast food restaurant";"G76-G78, G80-83 & G84-G88, Chong Yip Centre Block A, 402-404 Des Voeux Rd W, Sai Ying Pun";22.286563;114.136812;832
"DiVino Wine Bar & Restaurant";135;"school";"Italian restaurant";"73 Wyndham St, Central";22.281688;114.154812;833
"Clay Oven Indian Restaurant Hong Kong";83;"school";"Indian Curry Restaurant";"Kam Hing Building, 27-31 Catchick St, Kennedy Town";22.283563;114.128813;834
"Terrace Cafe";6;"school";"Buffet restaurant";"Sai Wan, 西環 皇后大道西239號華麗海景酒店3樓";22.286938;114.143563;835
"BRAZA Churrascaria";269;"school";"Brazilian restaurant";"3/F, Grand Progress Building, 15 Lan Kwai Fong, Central";22.280437;114.155438;836
"For Kee Restaurant";228;"school";"Cafe";"200 Hollywood Rd, Sheung Wan";22.285188;114.147813;837
"Uwe";21;"school";"Fine dining restaurant";"G/F, 252 Hollywood Road, Sheung Wan, Hong Kong, Sheung Wan";22.286063;114.146938;838
"Haoyun Lai Restaurant";17;"school";"Restaurant";"Sheung Wan, 上環干諾道西28號威勝商業大廈地下13-14號舖";22.287812;114.148938;839
"Le Souk";91;"school";"Moroccan restaurant";"4 Staunton St, Central";22.281563;114.153188;840
"The Den";78;"school";"Steak house";"8 Oaklands Path, Mid-level";22.283688;114.142563;841
"Bistecca Italian Steak House";226;"school";"Italian restaurant";"2/F, Grand Progress Building, Lan Kwai Fong, Central";22.280437;114.155438;842
"馬來亞餐廳 Malaya Restaurant";81;"school";"Singaporean restaurant";"Sai Wan, 半山般含道37-47號地下1D鋪";22.284812;114.141687;843
"Maison Libanaise";296;"school";"Lebanese restaurant";"10 Shelley St, Central";22.281812;114.153313;844
"Manakamana Nepali Restaurant";206;"school";"Nepalese restaurant";"165 Temple Street, Jordan, Jordan";22.306938;114.170188;845
"Ka Hing Restaurant";72;"school";"Restaurant";"Sai Wan, Western District 皇后大道西596號地鋪";22.286437;114.132938;846
"Man Mo Dim Sum";148;"school";"Dim Sum restaurant";"Wah Koon Building, 40 Upper Lascar Row, Sheung Wan";22.284812;114.149688;847
"Victoria Harbour Restaurant";228;"school";"Chinese restaurant";"Sai Wan, 西環卑路乍街8號西寶城2樓243號舖";22.285313;114.133063;848
"Gaddi's";44;"school";"French restaurant";"Tsim Sha Tsui, 尖沙咀彌敦道19-21號半島酒店1樓";22.295063;114.171813;849
"安半 香港 Yasuhan Japanese Restaurant";6;"school";"Restaurant";"Hollywood Centre, 77-91, 77-91 Queen's Rd W, Sheung Wan";22.286563;114.147062;850
"China Club";317;"school";"Chinese restaurant";"Central, Des Voeux Road2A號Bank of China";22.280313;114.160187;851
"La Cantoche";61;"school";"French restaurant";"G/F, 5 Wa Ln, Sheung Wan";22.285438;114.148563;852
"CAPO";123;"school";"Pizza restaurant";"Shop 4C-D, Tower 1, PL/F, China Hong Kong City, 33 Canton road, Tsim Sha Tsui";22.300188;114.167688;853
"Komune";51;"school";"Restaurant";"64 Wong Chuk Hang Rd, Aberdeen";22.249563;114.169063;854
"11 Westside";165;"school";"Mexican restaurant";"1/F The Hudson, 11 Davis St, Kennedy Town";22.281563;114.127188;855
"Gees Restaurant & Bar";10;"school";"Restaurant";"Hollywood Centre, Queen's, Queen's Rd W, Sheung Wan";22.286563;114.147188;856
"Bún Chả Vietnamese";113;"school";"Vietnamese restaurant";"King Ho Building, Shop 1, G/F, King Ho Building,, Aberdeen St, Sheung Wan";22.282687;114.151563;857
"The Lounge - JW Marriott Hotel Hong Kong";79;"school";"Restaurant";"Admiralty";22.277437;114.166063;858
"Islamic Centre Canteen";540;"school";"Halal restaurant";"5/F, Masjid Ammar And Osman Ramju Sadick Islamic Centre, 40 Oi Kwan Road, Wan Chai, Yat Sin St, Wan Chai";22.277437;114.178937;859
"Ho Ho Restaurant";328;"school";"Restaurant";"Luen Wai Apartment, 136-142 Belcher's St, Kennedy Town";22.282063;114.126938;860
"Les Fils à Maman";110;"school";"French restaurant";"75 Hollywood Rd, Central";22.283188;114.152813;861
"New Punjab Club";92;"school";"Punjabi restaurant";"World Wide Commercial Building, 34 Wyndham St, Central";22.279938;114.155188;862
"Nepal Restaurant";51;"school";"Nepalese restaurant";"14 Staunton St, Central";22.281812;114.152813;863
"Chan Kan Kee Chiu Chow Restaurant";13;"school";"Restaurant";"11 Queen's Rd W, Sheung Wan";22.286437;114.148563;864
"MOSTACCIOLI BROTHERS";96;"school";"Italian restaurant";"16 Elgin St, Central";22.282063;114.152437;865
"鼎點 Ding Dim 1968";511;"school";"Dim Sum restaurant";"59號 Wyndham St, Central";22.281313;114.154937;866
"Santorini Greek Restaurant";146;"school";"Greek restaurant";"The Elgin, 51 Elgin St, Central";22.281187;114.152563;867
"KamuKura Japanese Restaurant";74;"school";"Japanese restaurant";"Sai Wan, 西環堅尼地城士美非路45號聯德新樓地下E舖";22.281563;114.128063;868
"HKU Hill View Restaurant 港大山景餐廳";4;"school";"Restaurant";"The University Of Hong Kong Jockey Club Student Village II Lee Shau Kee Hall, 號, 109 Pok Fu Lam Rd, Pok Fu Lam";22.279938;114.130938;869
"HAKU";51;"school";"Restaurant";"Shop OT G04B, Ground Floor, Ocean Terminal, Habour City, Tsim Sha Tsui";22.295312;114.167813;870
"Mama San Restaurant & Bar";129;"school";"Restaurant";"46 Wyndham St, Central";22.280188;114.154937;871
"Tsui Wah Restaurant";741;"school";"Chinese restaurant";"德輔道中84-86號章記大廈地下及地庫(主要部份 Central, Central";22.284563;114.155563;872
"Caprice";205;"school";"Wine Bar";"8 Finance St, Central";22.286563;114.156562;873
"The Flying Pan";298;"school";"Breakfast restaurant";"9 Old Bailey St, Central";22.281688;114.153562;874
"Dragon State Kitchen Restaurant";215;"school";"Restaurant";"38 Bonham Strand, Sheung Wan";22.285813;114.151438;875
"Big Sur Beer & Barbecue";125;"school";"American restaurant";"Ground floor 22 Staunton Street, Central";22.281938;114.152688;876
"Yee Kee Restaurant";0;"school";"Chinese restaurant";"G/F, Sun Fat Building, 12S-12T Smithfield, Western District, Sai Wan";22.280437;114.129313;877
"Jollibee";313;"school";"Fast food restaurant";"Central, Connaught Rd Central, 13號11Shop z4, G/F, Eurotrade Centre, Central";22.282687;114.157563;878
"Spiga";104;"school";"Restaurant";"Lht Tower Podium, 3/F, Central";22.282063;114.156562;879
"Soul Food Thai";62;"school";"Thai restaurant";"26, 28 Elgin St, Central";22.281812;114.152563;880
"Blue Bar";37;"school";"Restaurant";"8 Finance St, Central";22.286437;114.157187;881
"Nadaman at Island Shangri-La, Hong Kong";83;"school";"Japanese restaurant";"Level 7, Pacific Place, Supreme Ct Rd, Central";22.277313;114.164437;882
"Lily & Bloom";265;"school";"American restaurant";"33 Wyndham St, Central";22.280437;114.155188;883
"Ho Choi Seafood Restaurant";344;"school";"Cantonese restaurant";"118 Connaught Rd W, Sai Ying Pun";22.288313;114.144438;884
"Assaggio Trattoria Italiana";110;"school";"Restaurant";"6/F Hong Kong Arts Centre, 2 Harbour Road Wanchai, Wan Chai";22.280188;114.170813;885
"Yan Toh Heen";183;"school";"Cantonese restaurant";"Yan Toh Heen, Lower Level, InterContinental Hong Kong, 18 Salisbury Road, Tsim Sha Tsui";22.293438;114.174062;886
"CIAK - In The Kitchen";194;"school";"Italian restaurant";"Central, Queen's Road Central, 15號Shop 327-333";22.280437;114.157937;887
"北京樓（中環）Peking Garden Restaurant (Central)";88;"school";"Chinese restaurant";"Alexandra House, 香港中環歷山大廈地庫首層B1Shop B1, Basement 1, Central";22.281563;114.158562;888
"Sabah Malaysian Cuisine";271;"school";"Malaysian restaurant";"98-108 Jaffe Rd, Wan Chai";22.278438;114.172187;889
"Restaurant Petrus at Island Shangri-La, Hong Kong";98;"school";"French restaurant";"Level 56, Pacific Place, Supreme Ct Rd, Central";22.277313;114.164437;890
"Tai Ping Koon Restaurant";203;"school";"Chinese restaurant";"60號 Stanley St, Central";22.282938;114.154937;891
"Man Ho Chinese Restaurant";31;"school";"Chinese restaurant";"Level 3, JW Marriott Hotel Pacific Place,, 88 Queensway, Admiralty";22.277437;114.166063;892
"Tsui Yuen";149;"school";"Restaurant";"-25, 23 Centre St, Sai Ying Pun";22.287187;114.142438;893
"Harvest Land Restaurant";47;"school";"Restaurant";"Sai Wan, Bonham Rd, 13-15號13-15 號";22.284438;114.142937;894
"Bubba Gump";379;"school";"Seafood restaurant";"The Peak, 100 Peak Rd, The Peak";22.271313;114.150062;895
"T'ang Court";103;"school";"Cantonese restaurant";"Tsim Sha Tsui, Peking Rd, 8號1/F and 2/F";22.296438;114.169688;896
"Sushi Saito";3;"school";"Sushi restaurant";"45th floor, Hong Kong, 8號 Finance St, Central";22.286563;114.156687;897
"Wish You Well Congee Restaurant";55;"school";"Chinese restaurant";"Sai Wan, 西環堅尼地城卑路乍街32號A地下";22.283063;114.130063;898
"豆苗居 - Grassroots Pantry";9;"school";"Restaurant";"108 Hollywood Rd, Sheung Wan";22.283813;114.150813;899
"The Peak Lookout";526;"school";"Continental restaurant";"121 Peak Rd, The Peak";22.271063;114.149437;900
"Dear Lilly";97;"school";"Restaurant";"Central, Finance St, 8號Podium Level 4 IFC Mall";22.285938;114.158188;901
"Bouchon Bistro Francais";110;"school";"French restaurant";"49 Elgin St, Central";22.281563;114.152437;902
"Lobster Bar and Grill at Island Shangri-La, Hong Kong";59;"school";"Restaurant";"Level 6, Pacific Place, Supreme Ct Rd, Central";22.277313;114.164437;903
"Portico";4;"school";"Restaurant";"Central, Queen's Road Central, 31號中環3/F, LHT Tower";22.282063;114.156562;904
"Pool Terrace";3;"school";"Restaurant";"8 Finance St, Central";22.285188;114.158813;905
"Spring Moon 嘉麟樓";125;"school";"Chinese restaurant";"1/F, The Peninsula Hong Kong, Salisbury Rd, Tsim Sha Tsui";22.295312;114.171438;906
"Bo Innovation";162;"school";"Fusion restaurant";"Wan Chai, Johnston Rd, 60號Shop 8, J Senses Entrance on Ship Street J Residence";22.276313;114.171062;907
"Dining Concepts";7;"school";"Restaurant";"Chinachem Hollywood Centre, 17/F, 1-13 Hollywood Rd, Central";22.282063;114.154438;908
"Tsui Hang Village";190;"school";"Cantonese restaurant";"16-18 Queen's Road Central, Central";22.280563;114.157312;909
"DiVino Patio";162;"school";"Restaurant";"Shop 11, 1/F, Causeway Centre, No. 28 Harbour Road, Wanchai, Wan Chai";22.280313;114.176437;910
"The Square";240;"school";"Mandarin restaurant";"Central, HK 香港島 中環 香港中環交易廣場平台4樓402號Shop 402, 4/F Exchange Square Podium";22.283938;114.158313;911
"Finewood Fastfood Restaurant";0;"school";"Fast food restaurant";"Sheung Wan, 上環蘇杭街102號地下";22.285188;114.150813;912
"Peking Garden Restaurant";180;"school";"Chinese restaurant";"Central, HK 香港島 香港中環歷山大廈地庫首層B1 Shop B1, Basement 1 Alexandra House";22.281563;114.158562;913
"Kanizen";43;"school";"Japanese restaurant";"3 Thomson Rd, Wan Chai";22.277188;114.170688;914
"Celestial Court Chinese Restaurant";51;"school";"Chinese restaurant";"Sheraton Hong Kong Hotel And Towers, 20 Nathan Rd, Tsim Sha Tsui";22.295187;114.172688;915
"The Grill Room";187;"school";"Restaurant";"2/F, The Humphreys, 6-6A Humphreys Avenue, Tsim Sha Tsui";22.298438;114.173313;916
"Su Hang Restaurant";17;"school";"Chinese restaurant";"2 Jervois St, Sheung Wan";22.285188;114.152813;917
"cafe TOO at Island Shangri-La, Hong Kong";96;"school";"Buffet restaurant";"Level 7, Pacific Place, Supreme Ct Rd, Central";22.276938;114.164313;918
"Fung Shing Restaurant";249;"school";"Chinese restaurant";"Seaview Commercial Building, 21-24 Connaught Rd W, Sheung Wan";22.287812;114.149188;919
"Sang Kee Restaurant";313;"school";"Seafood restaurant";"1至2楼, Hip Sang Building, 107～115 Hennessy Rd, Wan Chai";22.277688;114.172312;920
"Tosca";116;"school";"Italian restaurant";"Level 102, International Commerce Centre (ICC), 1 Austin Rd, West Kowloon";22.303313;114.160438;921
"Rech by Alain Ducasse";80;"school";"Seafood restaurant";"Lobby Level, InterContinental Hong Kong, 18 Salisbury Rd, Tsim Sha Tsui";22.293438;114.174062;922
"Hard Rock Cafe";886;"school";"Restaurant";"Central, LG/F LKF Tower55 D'Aguilar Street";22.280437;114.155188;923
"Shake Shack";275;"school";"Hamburger restaurant";"4018, IFC, 1 Harbour View St, Central";22.285562;114.158688;924
"Dynasty Restaurant - Wan Chai";138;"school";"Chinese restaurant";"1 Harbour Rd, Wan Chai";22.281563;114.173562;925
"Santorini Greek Cafe- Restaurant";0;"school";"Greek restaurant";"Lg/F 51 Elgin Street, Central";22.281187;114.152563;926
"Harbourside";162;"school";"Buffet restaurant";"Lower Level, InterContinental Hong Kong, 18 Salisbury Rd, Tsim Sha Tsui";22.293438;114.174062;927
"Café Gray Deluxe";227;"school";"Cafe";"Level 49 The Upper House Pacific Place, 88 Queensway, Admiralty";22.277688;114.166313;928
"kikusan";299;"school";"Japanese restaurant";"B13-15, Atrium, The Landmark, 11 Ice House St, Central";22.280938;114.158188;929
"Tango Argentinian Steak House";247;"school";"Steak house";"1/F, Carfield Commercial Building, 75-77 Wyndham St, Central";22.281812;114.154688;930
"Main St. Deli Restaurant";91;"school";"Western restaurant";"8 Peking Road, Tsim Sha Tsui";22.296438;114.169937;932
"AMMO";166;"school";"Restaurant";"Asia Society Hong Kong Center, 9 Justice Dr, Admiralty";22.276063;114.165313;933
"aqua";393;"school";"Italian restaurant";"One Peking, 29+30F, Peking Rd, Tsim Sha Tsui";22.296062;114.169812;934
"One Harbour Road at Grand Hyatt Hong Kong";123;"school";"Restaurant";"8th Floor, Grand Hyatt Hong Kong, 1 Harbour Road, Wan Chai";22.281438;114.172187;935
"Kam Fung Cafe";724;"school";"Hong Kong style fast food restaurant";"41 Spring Garden Ln, Wan Chai";22.275438;114.172563;936
"The Lounge & Bar";76;"school";"Cafe";"International Commerce Centre (ICC), 102/F, Ritz Carlton, 1, Austin Rd, West Kowloon";22.303313;114.160187;937
"Santorini Greek Restaurants WAN CHAI";75;"school";"Greek restaurant";"5th Floor, QRE Plaza, Queen's Rd E, Wan Chai";22.274938;114.172187;939
"Inakaya";59;"school";"Japanese restaurant";"1 Austin Rd W, West Kowloon";22.303437;114.159938;940
"Cafe on the Park";125;"school";"Restaurant";"2/F, Hotel Wing, The Royal Pacific Hotel & Towers, China Hong Kong City, 33 Canton Rd, Tsim Sha Tsui";22.299938;114.167938;941
"Bostonian Seafood and Grill Restaurant";110;"school";"Western restaurant";"8 Peking Rd, Tsim Sha Tsui";22.296438;114.169688;942
"Nadaman at Kowloon Shangri-La なだ万";81;"school";"Japanese restaurant";"64 Mody Rd, Tsim Sha Tsui East";22.297063;114.176938;943
"Brass Spoon";103;"school";"Vietnamese restaurant";"Shop B G/F 1-, 3 Moon St, Wan Chai";22.276438;114.168438;944
"Guo Fu Lou";15;"school";"Chinese restaurant";"Central, Cotton Tree Dr, 22號The Pavilion, UG Level, The Murray, Hong Kong, a Niccolo Hotel";22.278063;114.160063;945
"The Food Gallery Restaurant";69;"school";"Restaurant";"8 Peking Road, Tsim Sha Tsui";22.296438;114.169688;946
"restaurant Akrame";65;"school";"French restaurant";"9B Ship St, Wan Chai";22.276188;114.170813;947
"Harlan's";87;"school";"Restaurant";"100 Nathan Rd, Tsim Sha Tsui";22.299812;114.172312;949
"Outback Steakhouse";236;"school";"Restaurant";"Grand Hyatt, 8-12 Fenwick St, Wan Chai";22.278063;114.170437;950
"Lei Garden Restaurant";288;"school";"Restaurant";"121號 Sai Yee St, Mong Kok";22.320313;114.171438;951
"Fairwood";69;"school";"Hong Kong style fast food restaurant";"1 Austin Rd W, West Kowloon";22.303562;114.163063;952
"Seventh Son Restaurant";42;"school";"Chinese restaurant";"灣仔駱克道57號華美酒店3樓 Wharney Guang Dong Hotel Hong Kong 3th Floor, 57-73 Lockhart Rd, Wan Chai";22.278313;114.170938;953
"Tiffany Restaurant";903;"school";"Western restaurant";"148 Prince Edward Rd W, Prince Edward";22.324438;114.169812;954
"Waterside Terrace at Island Shangri-La, Hong Kong";9;"school";"Thai restaurant";"Level 8, Pacific Place, Supreme Ct Rd, Central";22.277188;114.164313;955
"Peking Garden";434;"school";"Mandarin restaurant";"Tsim Sha Tsui, HK 九龍 尖沙咀 尖沙咀星光行3樓 3/F., Star House";22.294688;114.169063;956
"The Butchers Club Burger";203;"school";"Hamburger restaurant";"Rialto Building, 2 Landale St, Wan Chai";22.276938;114.169312;957
"Popinjays";13;"school";"Restaurant";"22 Cotton Tree Dr, Central";22.278063;114.160063;958
"PizzaExpress Lee Tung";32;"school";"Restaurant";"Shop no. G31, G/F, Lee Tung Avenue, 200 Queen's Rd E, Wan Chai";22.275938;114.172563;959
"FINDS";91;"school";"Scandinavian restaurant";"The Luxe Manor, 39 Kimberley Rd, Tsim Sha Tsui";22.300938;114.173813;961
"The Lounge";46;"school";"Lounge";"8 Finance St, Central";22.286688;114.156562;962
"Surya Restaurant";68;"school";"Indian restaurant";"6th floor, 10 Prat, No 10 Prat Ave, Tsim Sha Tsui";22.298688;114.174438;963
"The Tai Pan";4;"school";"Restaurant";"22 Cotton Tree Dr, Central";22.278063;114.160063;965
"Spice Restaurant & Bar";97;"school";"Indian restaurant";"2nd Floor, 1 Knutsford Terrace, Tsim Sha Tsui";22.301187;114.173188;966
"Pepino Italian Restaurant";80;"school";"Italian restaurant";"238 Jaffe Rd, Wan Chai";22.278812;114.176437;967
"Luk Yu Tea House";646;"school";"Dim Sum restaurant";"24-26 Stanley St, Central";22.282188;114.155563;968
"Maison ES";93;"school";"Modern French restaurant";"No.1A Star Street (entrance on Electric Street), Admiralty";22.275938;114.168188;969
"Ming Court";182;"school";"Restaurant";"555 Shanghai St, Mong Kok";22.318312;114.168188;970
"Tamarind, Pan-asian Restaurant & Bar";111;"school";"Indian restaurant";"Wan Chai, Harbour Rd, 30號, Sun Hung Kai Centre";22.280437;114.176813;971
"Arirang Restaurant";148;"school";"Korean restaurant";"Wan Chai, 香港灣仔軒尼詩道314-324號 W Square 3樓";22.278187;114.178312;972
"Grappa's Kimberley";2;"school";"Pizza restaurant";"Shop G41 Miramar Shopping Centre, 132 Nathan Road, 1 Kimberley Road,, Tsim Sha Tsui, Admiralty";22.277313;114.165188;973
"Pure Veggie House";58;"school";"Vegan restaurant";"Mid-level, 半山花園道51號科達中心3樓";22.276438;114.156188;974
"Angelini at Kowloon Shangri-La";103;"school";"Italian restaurant";"64 Mody Rd, Tsim Sha Tsui";22.296812;114.176938;975
"Thai Farmer Restaurant";83;"school";"Thai restaurant";"Wanchai Central Building, 89 Lockhart Rd, Wan Chai";22.277938;114.172063;976
"Spasso";170;"school";"Italian restaurant";"Empire Centre, 68 Mody Rd, Tsim Sha Tsui East";22.298063;114.178563;977
"Istanbul Express Turkuaz Turkish Restaurant";2;"school";"Turkish restaurant";"New Mandarin Plaza, Shop 115-120, 1/F, Hong Kong";22.298813;114.172187;978
"Mirage Bar & Restaurant";48;"school";"Restaurant";"Wan Chai, Harbour Rd, 1號1/F, Renaissance Harbour View Hotel";22.281438;114.173938;979
"Trader's";7;"school";"Restaurant";"1 Expo Dr, Wan Chai";22.284062;114.172812;981
"Theo Mistral by Theo Randall";55;"school";"Italian restaurant";"70 Mody Rd, Tsim Sha Tsui East";22.299313;114.179313;982
"Hoi King Heen 海景軒";117;"school";"Chinese restaurant";"Tsim Sha Tsui East, Mody Rd, 70號B2, InterContinental Grand Stanford Hotel";22.299188;114.179313;984
"Nahm, Vietnamese & Thai";129;"school";"Vietnamese restaurant";"1 Austin Rd W, West Kowloon";22.305438;114.161562;987
"Viceroy Restaurant and Bar";1;"school";"Restaurant";"30 Harbour Rd, Wan Chai";22.280688;114.176813;988
"Promenade Restaurant";88;"school";"Restaurant";"Hung Hom, Metropolis Dr, 7號, Harbour Plaza Metropolis, G/F";22.301563;114.183313;989
"SKYE";205;"school";"Restaurant";"Causeway Bay, Gloucester Rd, 310號27樓";22.281438;114.186438;990
"Mercedes me Store Hong Kong";99;"school";"Event Venue";"Shop 38 & 40, G/F, 48 Queen's Road Central, Central";22.281938;114.156188;991
"Harbour Restaurant";50;"school";"Buffet restaurant";"The Harbourview, 4 Harbour Rd, Wan Chai";22.280188;114.171062;992
"New Shanghai";28;"school";"Shanghainese restaurant";"Wan Chai, 灣仔港灣道1號香港會議展覽中心1樓";22.280813;114.173188;993
"Alto 88";42;"school";"Italian restaurant";"31/F, 88 Yee Wo Street, Causeway Bay";22.279188;114.186812;994
"Kui Kee Seafood Restaurant";3;"school";"Seafood restaurant";"16號 Bowrington Rd, Wan Chai";22.278063;114.180687;995
"La Taverna Restaurant Italian";87;"school";"Italian restaurant";"36-38 Ashley Rd, Tsim Sha Tsui";22.297688;114.170562;996
"Le 188° Restaurant & Lounge";98;"school";"Restaurant";"北角油街23號港島海逸君綽酒店41樓";22.288938;114.191813;999
"BLT Steak";262;"school";"Steak house";"Ocean Terminal Main Concourse, Tsim Sha Tsui";22.295063;114.167938;1000
"Artemis & Apollo";15;"school";"Greek restaurant";"GF 9&11, Moon St, Wan Chai";22.276313;114.168563;1001
"The Red Pepper Restaurant";75;"school";"Restaurant";"7 Lan Fong Rd, Causeway Bay";22.278688;114.184188;1002
"粵 YUÈ at City Garden Hotel";116;"school";"Cantonese restaurant";"North Point, City Garden Rd, 9號城市花園酒店1樓";22.290313;114.194188;1003
"artichoke [ canteen ]";12;"school";"Health food restaurant";"Ap Lei Chau, Lee Hing St, 10號, Harbour Industrial Centre, 311";22.238062;114.153438;1004
"Jumbo Floating Restaurant";17;"school";"Chinese restaurant";"Sham Wan";22.243563;114.161813;1005
"Café de Coral";137;"school";"Hong Kong style fast food restaurant";"Beech St, Tai Kok Tsui";22.321063;114.163312;1006
"Neptune's Restaurant";111;"school";"Restaurant";"180 Wong Chuk Hang Rd, Wong Chuk Hang";22.246063;114.174687;1007
"Na Thai";36;"school";"Thai restaurant";"8 Min Fat St, Happy Valley";22.268813;114.186438;1008
"Namo Avant Thai Restaurant";50;"school";"Thai restaurant";"Tsim Sha Tsui East, Mody Rd, 68號Shop G18, Empire Centre,";22.298187;114.178563;1009
"L16 Cafe and Bar";138;"school";"Fusion restaurant";"Admiralty, 紅綿路19號香港公園";22.277563;114.162188;1011
"Café Renaissance";116;"school";"Cafe";"Wan Chai, Harbour Rd, 1號香港萬麗海景酒店閣樓";22.281563;114.173813;1012
"Tung Po Kitchen";859;"school";"Cantonese restaurant";"North Point, Java Rd, 99號, Java Road Municipal Services Building, 2/F";22.292312;114.199312;1013
"Lu Feng Restaurant";77;"school";"Cantonese restaurant";"The Peak, Old Peak Rd, The Peak Tower3A-B";22.271437;114.150062;1014
"One Piece Restaurant Hong Kong";96;"school";"Restaurant";"Whampoa Garden, Shung King St, 7號紅磡船景街7號黃埔新天地第5及6期AEON STYLE黃埔地面G01號舖";22.303938;114.189812;1015
"Koi Kei Seafood Restaurant";104;"school";"Cantonese restaurant";"16 Bowrington Rd, Wan Chai";22.278063;114.180687;1016
"Tao Heung (Chi Fu)";126;"school";"Chinese restaurant";"180 Pok Fu Lam Rd, Pok Fu Lam";22.257813;114.138938;1017
"Kokomi";135;"school";"Japanese restaurant";"Shop 002 LG Pacific Place, Admiralty";22.277313;114.166187;1018
"La Table French Brasserie";14;"school";"French restaurant";"1/F, New World Millennium Hong Kong Hotel, 72 Mody Road, Tsim Sha Tsui East";22.299438;114.179813;1019
"Quanjude Roast Duck";12;"school";"Chinese restaurant";"Tsim Sha Tsui East, 尖沙咀麼地道75號南洋中心地下低層";22.299313;114.178812;1020
"The Langham Hong Kong";730;"school";"8號 Peking Rd, Tsim Sha Tsui";"Located in: The Sun Arcade";22.296438;114.169688;1022
"Jamie's Italian";450;"school";"Italian restaurant";"2/F, Soundwill Plaza II,, 1 Tang Lung St, Causeway Bay";22.278937;114.181937;1023
"Man Wah Restaurant";589;"school";"Chinese restaurant";"G/F, Wah Hung House, 旺角通菜街153-159號地舖 Shop no. C & D, 153-159 Tung Choi St, Mong Kok";22.321563;114.169937;1025
"ALTO";151;"school";"Bar & Grill";"31/F, 18 Tang Lung St, Causeway Bay";22.279063;114.181563;1026
"EAT ME Bar & Restaurant";229;"school";"Restaurant";"Yau Ma Tei, Nathan Rd, 560號譽發廣場";22.314438;114.170562;1027
"John Anthony Hong Kong";43;"school";"Cantonese restaurant";"1 Sunning Rd, Causeway Bay";22.277938;114.185063;1028
"Tuxedos Restaurant";80;"school";"Restaurant";"Ocean Park, Aberdeen 海洋公園高峰樂園冰極天地";22.235563;114.171187;1029
"McDonald's";179;"school";"Fast food restaurant";"New Mandarin Plaza, 14 Science Museum Rd, Tsim Sha Tsui East";22.300688;114.178563;1030
"California Pizza Kitchen - San Po Kong";121;"school";"Pizza restaurant";"638 Prince Edward Rd E, San Po Kong";22.333187;114.196312;1032
"California Pizza Kitchen - Kowloon Bay";156;"school";"Pizza restaurant";"企業廣場5期MegaBox 11樓10號舖, 38號 Wang Chiu Rd, Kowloon Bay";22.319688;114.208188;1034
"Rainbow Seafood Restaurant";430;"school";"Seafood restaurant";"23-25 Sok Kwu Wan First St, Lamma Island";22.204437;114.130938;1035
"Enchanted Garden Restaurant";103;"school";"Restaurant";"Hong Kong Disneyland Hotel, Hong Kong Disneyland Resort, Lantau Island";22.308063;114.044313;1036
"Café 103 at The Ritz-Carlton, Hong Kong";157;"school";"Cafe";"International Commerce Centre (ICC), 103/F The Ritz-Carlton Hong Kong, 1 Austin Rd W, West Kowloon";22.304937;114.161562;1037
"Walt's Cafe";35;"school";"Western restaurant";"Hong Kong Disneyland Hotel, Lantau Island, Lantau Island";22.307937;114.044313;1038
"Crystal Lotus";64;"school";"Chinese restaurant";"Hong Kong Disneyland Hotel, Lantau Island";22.307937;114.043813;1039
"Chef Mickey";83;"school";"Buffet restaurant";"Disney's Hollywood Hotel, Lantau Island";22.309188;114.037062;1040
"Morton's The Steakhouse";178;"school";"Steak house";"喜來登 典雅 坊, 20 Nathan Rd, Tsim Sha Tsui";22.295187;114.172688;1041
"Treasure Vegetarian Restaurant";96;"school";"Vegetarian restaurant";"Un Chau, Tai Po Rd, 79-85號, Man On Building, 地下85號舖";22.332437;114.163812;1043
"East Ocean Restaurant";62;"school";"Chinese restaurant";"25 Westlands Rd, No. 12 Hill";22.287438;114.213438;1044
"Explorer's Club Restaurant";84;"school";"Asian restaurant";"廸士尼公園大嶼山 香港迪士尼樂園迷離莊園";22.310062;114.040438;1045
"Tao Square";245;"school";"Chinese restaurant";"Tsuen Wan, Tai Pa St, 4 - 30號609 - 613";22.371187;114.110937;1046
"PIZZAEXPRESS";76;"school";"Restaurant";"Tsing Yi, 325, Maritime Square 2- 3/F, Maritime Square 2";22.360188;114.106812;1047
"Hainan South";18;"school";"Asian fusion restaurant";"Hoi Bun Rd, 83號南 駅 One Bay East 宏利 大樓 1 樓 4A 號 舖";22.315938;114.214313;1049
"CIAK All Day Italian";200;"school";"Italian restaurant";"Cityplaza, 2F, 265 Tai Koo Shing Rd, Quarry Bay";22.286312;114.217937;1050
"Tahitian Terrace";86;"school";"Restaurant";"Hong Kong Disneyland Resort, 大嶼山香港迪士尼樂園探險世界區";22.311938;114.042063;1051
"Corner 90";157;"school";"Western restaurant";"90 Hung To Rd, Kwun Tong";22.307563;114.224813;1052
"Palm Court Lounge Bar";34;"school";"Lounge";"8 Peking Rd, Tsim Sha Tsui";22.296438;114.169812;1053
"PizzaExpress Discovery Bay Plaza";24;"school";"Pizza restaurant";"Shop G01B, G/F, Block A, 92-96 Discovery Bay Road, Db Plaza, Discovery Bay Lantau Island";22.296687;114.017063;1054
"Tao Heung";251;"school";"Dim Sum restaurant";"Shop G04, Maritime Square, 33 Tsing King Rd, Tsing Yi";22.358938;114.108062;1055
"Temple Street Spicy Crabs";101;"school";"Seafood restaurant";"210 Temple St, Yau Ma Tei";22.306188;114.169937;1056
"J Boroski";151;"school";"Cocktail Bar";"Ezra's Ln, Central";22.282063;114.154438;1057
"Ootoya";65;"school";"Japanese restaurant";"號 AEON STYLE 地下 L-013 鋪, 2 Kornhill Rd, Quarry Bay";22.284187;114.216187;1058
"2+2 Café";110;"school";"Restaurant";"8 Pak Hok Ting St, Sha Tin";22.379813;114.188437;1059
"Taiwan Delight";59;"school";"Restaurant";"Sha Tin Wai, Tai Chung Kiu Rd, 34號～36";22.381938;114.196438;1060
"The Murray, Hong Kong, a Niccolo Hotel";291;"school";"22 Cotton Tree Dr, Central";"75H6+62 Hong Kong";22.278063;114.160063;1062
"Ping Pong 129 Gintonería";287;"school";"Bar";"129 Second St, Sai Ying Pun";22.286312;114.139688;1063
"Hill Bar";16;"school";"Bar";"JiaNingNa GouWu GuangChang, San Hong St, 52號A G/F";22.285063;114.135438;1064
"Bar Pacific (Shop 39)";16;"school";"Bar";"Sai Wan, Shop A, G/F, New Start Building, Nos. 330-336 Queen's Road West,";22.286813;114.141313;1065
"Centre Street Bar";2;"school";"Bar";"Island Pacific Hotel Hong Kong, 1/F,, 152 Connaught Rd W, Sai Wan";22.288313;114.142563;1066
"Lobby Bar and Lounge at Hotel Jen Hong Kong";7;"school";"Lounge";"1/F Queen's Road West, Western District, Sai Wan";22.286063;114.134813;1067
"Jen Bar";1;"school";"Bar";"Sai Wan, 仁民酒店2樓";22.286063;114.134937;1068
"Bar Tomoko";49;"school";"Bar";"5 First St, Sai Ying Pun";22.286563;114.143563;1069
"Crispy Bistro";25;"school";"Bar";"32 Second St, Sai Ying Pun";22.286188;114.142313;1070
"Craft Brew & Co";78;"school";"Bar";"36 High St, Sai Ying Pun";22.285188;114.142187;1071
"Ginger Whisky Bar";76;"school";"Bar";"12 On Wo Ln, Sheung Wan";22.284438;114.152437;1072
"The Iron Fairies Hong Kong";357;"school";"Bar";"LG, 1 Hollywood Road, Central";22.281938;114.154563;1073
"A'Ha Bar and Gallery";0;"school";"Bar";"A'Ha Bar and Gallery, Elgin Street, Central, Sheung Wan";22.287688;114.147562;1076
"Itchi";45;"school";"Bar";"186 Hollywood Rd, Tai Ping Shan";22.285438;114.148563;1077
"Foxglove";328;"school";"Bar";"2/F, 6 Duddell St, Central";22.279813;114.157187;1078
"Mars Bar";36;"school";"Cocktail Bar";"G/F, No.111 Queen's Road west, Sai Ying Pun";22.286312;114.146688;1079
"LE BAR";3;"school";"Bar";"Sheung Wan, 上環德輔道西28號宜必思香港中上環酒店5樓";22.287688;114.147562;1080
"208 Duecento Otto";279;"school";"Italian restaurant";"208 Hollywood Rd., Tai Ping Shan";22.285562;114.147687;1081
"Stockton";234;"school";"Bar";"32 Wyndham St, Central";22.279938;114.155313;1082
"Quench K-Town";33;"school";"Sports Bar";"1A Sands St, Kennedy Town";22.282938;114.130312;1083
"COA";77;"school";"Cocktail Bar";"Shop A, LG/F Wah Shin House, 6-10 Shin Hing Street, Central, Hong Kong, Central";22.284062;114.152063;1084
"The Envoy";115;"school";"Restaurant";"3/F, The Pottinger Hong Kong, 74 Queen's Road Central, Central";22.282687;114.155313;1085
"K Town Bar and Grill";136;"school";"Bar & Grill";"Shop G7 & G8 G/F Sincere Western House 44-46 Forbes St Kennedy Town H.K., Sai Wan";22.281313;114.126687;1086
"OZONE";662;"school";"Cocktail Bar";"Level 118 International Commerce Centre (ICC, 1 Austin Rd W, Tsim Sha Tsui";22.303437;114.160187;1087
"Safe-Bubble & Malt";17;"school";"Bar";"Central, Queen's Road Central, 255號";22.284688;114.151188;1088
"YellowPurple Cafe & Bar";13;"school";"Bar";"56 Forbes St, Kennedy Town";22.281313;114.126438;1089
"COA Hong Kong";8;"school";"Cocktail Bar";"Wan Shin House, No. 6-10 Shin Hing Street, Hong Kong, Central";22.284062;114.152063;1090
"Ohms Cafe & Bar";59;"school";"Cafe";"Tai Ping Shan, Hollywood Rd, 192號店舖A";22.285188;114.148312;1091
"The Woods";84;"school";"Bar";"Central, Hollywood Rd, 17-19號L/G";22.282063;114.154187;1092
"WINK";42;"school";"Bar";"79 Bonham Strand, Sheung Wan";22.285938;114.151563;1093
"Delaney's The Irish Pub";566;"school";"Irish Pub";"Mary Building, 71-77 Peking Rd, Tsim Sha Tsui";22.296188;114.171687;1094
"Stazione Novella";91;"school";"Wine Bar";"Ming Hing House, 52-56 Staunton St, Central";22.282687;114.151812;1095
"Bar De Luxe";28;"school";"Bar";"30/F, Asia Pacific Centre 8 Wyndham Street, Asia Pacific Centre, Wyndham St, Central";22.281062;114.156562;1096
"Brooklyn Bar and Grill";45;"school";"Bar";"29-35 Staunton St, Central";22.282313;114.152563;1097
"M bar";67;"school";"Bar";"5 Connaught Rd Central, Central";22.281938;114.159438;1098
"The Black Star";68;"school";"Bar";"81 Wing Lok St, Sheung Wan";22.286063;114.152063;1099
"Nocturne Wine & Whisky Bar";37;"school";"Bar";"35 Peel St, Central";22.283312;114.153188;1100
"Eyebar";300;"school";"Bar";"ISQUARE, 30/F, 63 Nathan Rd, Tsim Sha Tsui";22.297188;114.171813;1101
"G & T Bar - Craft Gin & Cocktails";25;"school";"Cocktail Bar";"30 Hollywood Rd, Central";22.282063;114.153438;1102
"Quench Bar";15;"school";"Bar";"f, Hong Kong, G, 49 Staunton St, Central";22.282562;114.152188;1104
"The Old Man";189;"school";"Bar";"Lower G/F, 37-39 Aberdeen Street, Soho, Central, Hong Kong, Central";22.282813;114.151563;1105
"Bindaas Bar + Kitchen";205;"school";"Indian restaurant";"33 Aberdeen St, Central";22.283563;114.152437;1106
"T:ME Bar (TIME Bar)";33;"school";"Gay Bar";"Rear block, 65, Hollywood Rd, Central";22.283188;114.152813;1107
"Havana Bar";43;"school";"Bar";"21 D'Aguilar St, Central";22.281187;114.155438;1108
"Tequila on Davis";104;"school";"Mexican restaurant";"Shop 7, G/F & C/L., Grand Fortune Mansion, No. 1 Davis Street, Kennedy Town, Hong Kong, Sai Wan";22.283563;114.126813;1109
"THE SPOT BAR";19;"school";"Bar";"Central, Staunton St, 32A";22.282063;114.152563;1110
"The Globe";639;"school";"Gastropub";"Central, Graham St, 45-53A號嘉利大廈";22.282438;114.152813;1111
"Jaa Bar";31;"school";"Pub";"Peel St, Central";22.283312;114.153062;1112
"001 Bar";49;"school";"Bar";"97 Wellington St, Central";22.283563;114.154312;1113
"La Cabane Wine Bistro";166;"school";"Wine Bar";"62 Hollywood Rd, Central";22.282938;114.152813;1114
"Ronin";125;"school";"Japanese restaurant";"8 On Wo Lane, Ground floor, Sheung Wan";22.284438;114.152437;1115
"Aberdeen Street Restaurant & Bar";67;"school";"Restaurant";"41-49 Aberdeen St, Central";22.282687;114.151563;1116
"Soiree";37;"school";"Cocktail Bar";"Soho, 中環蘇豪伊利近街 19 號地下, 19 Elgin St, Central";22.282687;114.152437;1117
"Le Boudoir";52;"school";"Bar";"Basement,, 65 Wyndham St, Central";22.281438;114.154937;1118
"Geronimo Shot Bar HK";35;"school";"Bar";"2/F, 27-39 D'Aguilar St, Central";22.281062;114.155188;1119
"Alvy's";262;"school";"Pizza restaurant";"8 Holland St, Kennedy Town";22.284313;114.131063;1120
"de België";93;"school";"Belgian restaurant";"21 Elgin St, Central";22.282063;114.152188;1121
"Artesian Bar";10;"school";"Bar";"8 Peking Road, Tsim Sha Tsui";22.296438;114.169688;1122
"Captain's Bar";92;"school";"Bar";"5 Connaught Rd Central, Central";22.281938;114.159313;1123
"Bocadito";26;"school";"Cocktail Bar";"40 Staunton St, Central";22.282438;114.152063;1125
"Klassic Bar & Lounge";3;"school";"Bar";"33 Wellington Street, 6/F, The Loop, Central";22.282063;114.155438;1126
"65 Peel";170;"school";"Bar";"65 Peel St, Central";22.282313;114.152188;1127
"Rummin' Tings";119;"school";"Caribbean restaurant";"28 Hollywood Rd, Central";22.282063;114.153562;1128
"The Pontiac";97;"school";"Cocktail Bar";"13 Old Bailey St, Central";22.281563;114.153562;1129
"The Phoneix Bar & Restaurant";0;"school";"Bar";"Mid-level, 中環蘇豪些利街29號地下";22.280437;114.151563;1130
"Gecko";90;"school";"Live Music Bar";"Central, Ezra's Ln, LG/F Au's Building";22.282063;114.154187;1131
"Ghurkha Bar";0;"school";"Bar";"Yau Shun Building, 50 D'Aguilar St, Central";22.280813;114.155188;1132
"Little L.A.B.";43;"school";"Bar";"48-50 Staunton St, Central";22.282562;114.151937;1133
"Pier 3 Bar";48;"school";"Bar & Grill";"Central, Man Kwong St, Central Ferry Pier No.3, 11號";22.288313;114.157563;1134
"STUDIO";4;"school";"Lounge";"On Hing Building, 1 On Hing Terrace, Central";22.280563;114.156562;1135
"Flaming Frango - Piri Piri Kitchen & Bar";46;"school";"Restaurant";"Escapade, 55 Elgin St, Central";22.281062;114.152688;1136
"Peel Fresco Music Lounge";118;"school";"Live Music Venue";"49 Peel St, Central";22.282562;114.152688;1137
"HQ by Terrace Concepts";50;"school";"Bar";"1 Lyndhurst Tower, 1 Lyndhurst Terrace, Central";22.282562;114.154688;1138
"Bloop Shisha Lounge";49;"school";"Hookah Bar";"21/F Ho Lee Commercial Building, 38-44 D'Aguilar St, Central";22.280813;114.155313;1139
"Varga Lounge";95;"school";"Bar & Grill";"36 Staunton St, Central";22.282438;114.152188;1140
"Back Bar";42;"school";"Bar";"7 Ship St, Wan Chai";22.276438;114.170813;1141
"The China Bar";109;"school";"Bar";"Ho Lee Commercial Building, 38-44 D'Aguilar St, Central";22.280938;114.155313;1142
"The Pawn";404;"school";"Western restaurant";"62 Johnston Road Wan Chai, Wan Chai";22.276313;114.171438;1143
"The Phoenix";86;"school";"Pub";"Central, 29 Shelley St, Mid-Levels, Central中環蘇豪些利街29號地下";22.280313;114.151563;1144
"Please Don't Tell";41;"school";"Bar";"Central";22.280813;114.157688;1146
"Brickhouse";308;"school";"Mexican restaurant";"20 D'Aguilar Street, Central";22.281187;114.155813;1147
"Employees Only Hong Kong";127;"school";"Cocktail Bar";"19 Lan Kwai Fong, Central";22.280688;114.155438;1148
"Pier 3 Bar & Restaurant";10;"school";"Bar & Grill";"Podium Level,Central Pier No.3,11 Man Kwong Street,Central,Hong Kong, Central";22.288188;114.157563;1149
"Bitters and Sweets";77;"school";"Hamburger restaurant";"1/F, Somptueux Central, 52-54 Wellington Street, Central";22.281812;114.155313;1150
"Shelter Italian Bar & Restaurant";77;"school";"Bar";"7/F, Hysan Place, 500 Hennessy Rd, Causeway Bay";22.279687;114.183563;1151
"Slide On 79";43;"school";"Bar";"Shop A&B, Upper Basement, Harilela House, 79 Wyndham Street, (Entrance from Pottinger Street), Central";22.281812;114.154563;1152
"IQ Bar";6;"school";"Bar";"Winner Building, 27-39 D'Aguilar St, Central";22.281062;114.155313;1153
"LinQ";76;"school";"Bar";"35 Pottinger St, Central";22.282188;114.154812;1154
"Ozone Bar";153;"school";"Bar";"West Kowloon";22.303313;114.160063;1155
"Tivo";56;"school";"Spanish restaurant";"43 Wyndham St, Central";22.280938;114.154937;1156
"STUDIO CLUB";30;"school";"Cocktail Bar";"On Hing Building, 1 On Hing Terrace, Central";22.280563;114.156562;1157
"Charcoal HK";66;"school";"Bar";"4/F A-B , Ho Lee Commercial Building, 40 D'Aguilar Street, Lan Kwai Fong, Central 中環蘭桂坊德己立街38-44號好利商業大廈4樓A及B室, Central";22.280813;114.155313;1158
"Oysters Bar & Restaurant";18;"school";"Oyster bar restaurant";"Central, Wo On Ln, 9號b號舖 地下";22.281688;114.155438;1159
"Second Street Comfort Food & Bar";127;"school";"Western restaurant";"G/F, Shop 9-10, Island Crest, Second St, Sai Ying Pun";22.286312;114.143188;1160
"The Wilshire Bar";3;"school";"Bar";"1/f, 11 Davis St, Kennedy Town";22.282188;114.126938;1161
"Dr. Fern's Gin Parlour";197;"school";"Bar";"Shop B31A, First Basement Floor, Landmark Atrium, 15 Queen’s Road, Central";22.281438;114.157688;1162
"Trafalgar";206;"school";"Bar";"Wan Chai, Lockhart Rd, 54-62號, The Broadway, 5/F";22.278063;114.170813;1163
"Château Zoobeetle";16;"school";"Fashion accessories store";"38 Sai Street, Sheung Wan";22.285063;114.148938;1164
"The Garage Bar";16;"school";"Bar";"2/f, Open garden, Cordis Hotel, Shanghai street, Mong Kok";22.318563;114.168062;1165
"Mine Bar";64;"school";"Bar";"G/F , 31 D'Aguilar Street ,Lan Kwai Fong, Central";22.280938;114.155313;1166
"Mandarin Grill + Bar";74;"school";"Bar & Grill";"5 Connaught Rd Central, Central";22.281938;114.159438;1167
"BB Jazz Lounge";50;"school";"Jazz club";"2/F, Ho Lee Commercial Building, 38-44 D'Aguilar St, Central";22.280688;114.155438;1169
"Rúla Búla";94;"school";"Bar";"58-62 D'Aguilar St, Central";22.280437;114.155438;1170
"Bar George";0;"school";"Restaurant";"38-44 D'Aguilar St, Central";22.280813;114.155313;1171
"Chin Chin Bar";100;"school";"Lounge";"Tsim Sha Tsui, Hanoi Rd, 18號香港凱悅酒店";22.297562;114.173813;1172
"Felix";239;"school";"Modern European restaurant";"28/F, The Peninsula Hong Kong, Salisbury Rd, Tsim Sha Tsui";22.295312;114.171938;1173
"Café Gray Bar";23;"school";"Bar";"Level 49, The Upper House Pacific Place, 88 Queensway, Admiralty";22.277437;114.166063;1174
"Peak Cafe Bar";9;"school";"Cafe";"Central, 中環蘇豪些利街9-13號";22.281563;114.152688;1175
"CO CO DUCK BAR";41;"school";"Bar";"74-84 Sai Yeung Choi St S, Mong Kok";22.318938;114.170313;1177
"Bar Buonasera";42;"school";"Cocktail Bar";"7/F, 麼地大廈, Mody House, No. 30 Mody Rd, Tsim Sha Tsui";22.297063;114.174438;1178
"Fu Bar";0;"school";"Restaurant";"75 Wyndham St, Central";22.281812;114.154688;1179
"Bar Q88";10;"school";"Bar";"Lobby Level, JW Marriott Hotel Hong Kong, Pacific Place, 88 Queensway, Admiralty";22.277563;114.166063;1180
"Dada Bar + Lounge";44;"school";"Bar";"The Luxe Manor, 39 Kimberley Rd, Tsim Sha Tsui";22.300938;114.173938;1181
"Ciao Chow - Italian Cafeteria";355;"school";"Italian restaurant";"G/F, California Tower, 30-32 D'Aguilar Street, Lan Kwai Fong, Central";22.281062;114.155563;1182
"Muse Wine Bar";33;"school";"Wine Bar";"Jordan, Chi Wo St, 1號B/F";22.307688;114.172438;1183
"The Station Bar";67;"school";"Bar";"Shop 1, G/F Dannies House, 20 Luard Road, Wan Chai";22.278688;114.171938;1184
"Vibes";80;"school";"Bar";"Vibes, 5/F, The Mira, 118 Nathan Road, Tsim Sha Tsui, Tsim Sha Tsui";22.300313;114.172563;1185
"Bar 109";85;"school";"Bar";"109 Lockhart Rd, Wan Chai";22.278187;114.172312;1186
"Bar Six";1;"school";"Bar";"Parekh House, 6F, 63, Wyndham St, Central";22.281438;114.154937;1187
"VIP Cafe & Bar";18;"school";"Bar";"Jordan, Nanking St, 1N號1/F，南京大樓";22.305813;114.170938;1188
"Gecko ib whiskey and jazz bar";1;"school";"Live Music Bar";"Stage c ,L/g floor Au’s Building,Ezra lane, Hollywood Rd, Central";22.282063;114.154187;1189
"In Time Bar";16;"school";"Pub";"Citadines Ashley Hongkong, 18 Ashley Rd, Tsim Sha Tsui";22.297063;114.170688;1190
"Chrono Bar";0;"school";"Bar";"11 Lan Kwai Fong, Central";22.280688;114.155688;1191
"Ophelia";244;"school";"Cocktail Bar";"Shop No41A, 1/F The Avenue, 200 Queen's Rd E,, Lee Tung St, Wan Chai";22.276188;114.172438;1192
"Djiboutii Hong Kong";95;"school";"Bar";"2 Landale St, Wan Chai";22.277313;114.169563;1193
"Tiffany's New York Bar";37;"school";"Bar";"70 Mody Rd, Tsim Sha Tsui East";22.299313;114.179313;1194
"Red Lips Bar";11;"school";"Bar";"G/F (Rear Port.), 1a Lock Road, Tsim Sha Tsui, Kowloon, Tsim Sha Tsui";22.296563;114.171438;1195
"Tosca / The Lounge & Bar / Cafe 103";1;"school";"Bar & Grill";"West Kowloon, 尖沙咀柯士甸道西1號 香港麗思卡爾頓酒店 102樓 (B部份) 及103樓 (A部份)";22.302938;114.159438;1196
"Champs Bar";81;"school";"Bar";"Wan Chai, 灣仔灣仔道209-219號銅鑼灣利景酒店地庫1樓";22.277813;114.179188;1197
"Tascar Bar";5;"school";"Bar";"348 Nathan Rd, Yau Ma Tei";22.307313;114.172063;1198
"The Nest Restaurant & Bar 雀巢餐廳酒吧";64;"school";"Bar";"G/F, Lee Shing Mansion, No 43, 43A & 43B Jordan Road 11-19 Wai Ching Street, Yau Ma Tei";22.305938;114.167562;1199
"AK's bar + lounge";9;"school";"Sports Bar";"238 Jaffe Rd, Wan Chai";22.278812;114.176437;1200
"WTF";91;"school";"Bar";"10 Morrison Hill Rd, Causeway Bay";22.277563;114.179813;1201
"Ham and Sherry";134;"school";"Spanish restaurant";"1-7 Ship St, Wan Chai";22.276438;114.170813;1202
"AER Bar Hong Kong";1;"school";"Middle Eastern restaurant";"G/F, 兰桂坊, 17 Wing Wah Ln, Central";22.281062;114.155188;1203
"KonFusion Restaurant and Bar";62;"school";"Restaurant";"Lai Yan Lau, Queen's Rd W, Sheung Wan";22.286563;114.147562;1204
"Funky Monkey";67;"school";"Bar";"17 Wai Ching St, Jordan";22.306188;114.167813;1205
"Soul Bar & Lounge";13;"school";"Bar";"Tsim Sha Tsui, 尖沙咀亞士厘道23-25號雅仕利中心9樓";22.297188;114.170313;1206
"Aqua Spirit";34;"school";"Bar";"Peking Rd, Tsim Sha Tsui";22.296062;114.169688;1207
"Dusk till Dawn Bar";179;"school";"Restaurant";"76 Jaffe Rd, Wan Chai";22.278563;114.170938;1208
"Ciacoe Italian Wine Bar";28;"school";"Wine Bar";"1 Moon St, Wan Chai";22.276438;114.168438;1209
"Vesper Bar";32;"school";"Bar";"10th floor, 1 Knutsford Terrace, Tsim Sha Tsui";22.301187;114.173188;1210
"Champagne Bar at Grand Hyatt Hong Kong";5;"school";"Bar";"Lobby Level, Grand Hyatt Hong Kong, 1 Harbour Road, Wan Chai";22.281313;114.172063;1211
"Typhoon";101;"school";"Bar";"39 號 地下, 37 Lockhart Rd, Wan Chai";22.278313;114.170188;1213
"Times Champagne Bar n Restaurant";18;"school";"Bar";"353 Lockhart Rd, Causeway Bay";22.279562;114.178937;1214
"Tapas Bar at Kowloon Shangri-La";170;"school";"Tapas Bar";"64 Mody Rd, Tsim Sha Tsui East";22.297063;114.177313;1215
"UFO Bar";5;"school";"Bar";"Tsim Sha Tsui, 尖沙咀赫德道11號";22.297562;114.174563;1216
"Dickens Bar (inside The Excelsior)";243;"school";"Restaurant";"281 Gloucester Rd, Causeway Bay";22.281938;114.184438;1217
"Sky Lounge";45;"school";"Lounge";"20 Nathan Rd, Tsim Sha Tsui";22.295312;114.172938;1218
"Butler";153;"school";"Bar";"30 Mody Rd, Tsim Sha Tsui";22.297063;114.174563;1219
"Santé Wine Bar";12;"school";"Wine Bar";"4 Ship St, Wan Chai";22.275938;114.170938;1220
"Big Apple (Bar + Live Band)";2;"school";"Bar";"38, 32 Mody Rd, Tsim Sha Tsui";22.297188;114.174813;1221
"Hex Bar & Billiards";18;"school";"Bar";"Causeway Bay, Yiu Wa St, 38號26/F, Zing, Causeway Bay Bigfoot Centre";22.277313;114.181688;1222
"The Old Monk Place";65;"school";"Bar";"The Hart, 4 Hart Ave, Tsim Sha Tsui";22.297938;114.174687;1223
"V bar & lounge";1;"school";"Restaurant";"Tsim Sha Tsui, G/F, 71 Mody Road";22.298937;114.178063;1224
"Detour";56;"school";"Coffee shop";"G/F, Shop A, 35-37 First Street, Sai Ying Pun";22.286563;114.142812;1225
"J's Bar Bistro";25;"school";"Bar";"號 帝 苑 酒店 2 樓, 69 Mody Rd, Tsim Sha Tsui";22.298563;114.177687;1226
"Bar Pacific (Shop 31)";14;"school";"Bar";"Aberdeen, Aberdeen Main Rd, 238號G/F., Jadewater";22.248437;114.152313;1227
"Devil Club (Member Bar)";4;"school";"Bar";"Wan Chai, Gloucester Rd, 229號14 樓";22.280437;114.180187;1228
"The Hair of the dog Bar & Restaurant狗毛3";76;"school";"Bar";"22 Minden Ave, Tsim Sha Tsui";22.296687;114.174813;1229
"M1 Bar";34;"school";"Bar";"Tsim Sha Tsui, 金巴利道80號地下上層,地下及地庫";22.302062;114.175563;1230
"FATT'S PLACE";133;"school";"Bar";"2 Hart Ave, Tsim Sha Tsui";22.298187;114.174438;1231
"The Trafalgar Brewing Company";172;"school";"Western restaurant";"Wan Chai, Harbour Rd, 28號Shop 10, Brim 28, 1/F,";22.280437;114.176313;1232
"Peak Bar";134;"school";"Continental restaurant";"9-13 Shelley St, Central";22.281688;114.152813;1233
"SLOW Bar";5;"school";"Bar";"10號12樓, Observatory Ct, Tsim Sha Tsui";22.301813;114.174813;1234
"The Italian Club Wine Bar Steak House Pizza Gourmet";56;"school";"Italian restaurant";"Winly Building, Elgin St, Central";22.283063;114.152437;1235
"Sevva";376;"school";"Fusion restaurant";"PRINCES BUILDING, 10 Chater Rd, Central";22.281062;114.159313;1236
"Dacha Restaurant & Bar";121;"school";"Russian restaurant";"Central, Hollywood Rd, 38-40號G/F, Wing On Building";22.282188;114.153188;1237
"al porto";0;"school";"Bar";"Ocean Terminal, Tsim Sha Tsui";22.296062;114.168438;1238
"Butler - The Japanese Whisky Bar";0;"school";"Bar";"30 Mody Rd, Tsim Sha Tsui";22.296812;114.174563;1239
"Djiboutii";6;"school";"Bar & Grill";"2 Landale St, Wan Chai";22.277063;114.169438;1240
"Gradini Ristorante E Bar Italiano";52;"school";"Italian restaurant";"74 Queen's Road Central, Central";22.282813;114.155438;1244
"Lost Stars Livehouse Bar & Eatery";131;"school";"Live Music Bar";"Square Mile, 11 Li Tak St, Tai Kok Tsui";22.320813;114.161437;1245
"Zuma Lounge & Bar";17;"school";"Restaurant";"Central, 置地廣場中庭, 6/F, 601-603舖";22.281062;114.157813;1246
"Lava Bar & Restaurant 西班牙餐廳";132;"school";"Spanish restaurant";"236號 Tung Choi St, Mong Kok";22.325313;114.169438;1247
"Supreme Bar and Lounge";5;"school";"Bar";"Ground Floor And Cockloft, Hang Sing Mansion, 8 Tam Kung Road, Kowloon, To Kwa Wan";22.320938;114.187812;1249
"Piccolo Pizzeria & Bar";108;"school";"Pizza restaurant";"Sai Wan, 西環堅尼地城爹核士街1E號舖";22.283312;114.126813;1250
"Sugar";335;"school";"Bar";"Quarry Bay, 太古太古城道29號東隅32樓";22.286063;114.216187;1251
"The Booth";4;"school";"Bar";"18 King's Rd, Causeway Bay";22.283312;114.192812;1252
"Sea Breeze Bar";4;"school";"Bar";"Hong Kong Disneyland Resort, 神奇道";22.308313;114.045188;1254
"Delaney's";72;"school";"Irish restaurant";"100 Cyberport Rd, Telegraph Bay";22.260938;114.129562;1255
"The Waterfront Restaurant & Bar";55;"school";"Western restaurant";"58 Yung Shue Wan Main St, Lamma Island";22.225437;114.111313;1257
"Oyster & Wine Bar";47;"school";"Oyster bar restaurant";"Sheraton Hong Kong Hotel And Towers, 20 Nathan Rd, Tsim Sha Tsui";22.295187;114.172688;1258
"Wooloomooloo Steakhouse (Wan Chai)";772;"school";"Steak house";"The Hennessy, 31/F & Rooftop, 256 Hennessy Rd, Wan Chai";22.277563;114.176188;1259
"Alibi - Wine Dine Be Social";122;"school";"Mediterranean restaurant";"號 香港 康 得 思 酒店 5 樓層, 555 Shanghai St, Mong Kok";22.318188;114.168062;1261
"Supergiant Tapas & Cocktail Bar";63;"school";"Restaurant";"3/F, Mira Moon Hotel,, 388 Jaffe Rd, Causeway Bay";22.279687;114.179562;1262
"See Breeze Bar";1;"school";"Bar";"Lantau Island, Hong Kong Disneyland Hotel, Hong Kong Disneyland";22.308188;114.045188;1263
"The Steak House Winebar + Grill";116;"school";"Chophouse restaurant";"Lower Level InterContinental Hong Kong, 18 Salisbury Rd, Tsim Sha Tsui";22.293563;114.173437;1264
"Tott's and Roof Terrace";117;"school";"Seafood restaurant";"Causeway Bay, Gloucester Rd, 281號 34F";22.281812;114.184438;1265
"Flint";1;"school";"Hotel";"Level 5, JW Marriott Hotel Hong Kong Pacific Place, 88, Queensway, Admiralty";22.277563;114.166313;1267
"Sing Woo Rd Bar And Grill";48;"school";"Restaurant";"18 Sing Woo Rd, Happy Valley";22.267687;114.186812;1268
"Tai Hang Bar & Grill";89;"school";"Restaurant";"38 Tung Lo Wan Rd, Tai Hang";22.278438;114.190688;1269
"Scarlett Café & Wine Bar";178;"school";"Restaurant";"2 Austin Ave, Tsim Sha Tsui";22.302188;114.176437;1271
"Chachawan";300;"school";"Thai restaurant";"206 Hollywood Road, Tai Ping Shan";22.285438;114.147938;1272
"Fringe Club";314;"school";"Performing Arts Theater";"2 Lower Albert Rd, Central";22.280188;114.155688;1273
"THE SKY BAR";67;"school";"Restaurant";"Causeway Bay, Percival St, 99號號 利 舞台 廣場 8 樓 8A 舖";22.278313;114.183062;1275
"Happy Paradise";86;"school";"Chinese restaurant";"52-56 Staunton Street UG/F Central, Central";22.282687;114.151812;1276
"Benates Restaurant & Bar Hong Kong";9;"school";"Exhibition and Trade Centre";"Convention Ave, Wan Chai";22.281563;114.173188;1277
"Tap Tap - Bar & Restaurant";15;"school";"Bar";"Lantau Island";22.243937;113.978687;1278
"NO.1 BAR";21;"school";"Bar";"Tuen Mun, Yan Oi Tong Circuit, 45號, Hing Tai Building, 地下9 舖";22.395687;113.977313;1279
"Red Sugar";67;"school";"Restaurant";"7/F, Kerry Hotel, 38 Hung Luen Rd, Hung Hom";22.301312;114.188813;1281
"Kinson Burger & Bar";60;"school";"Western restaurant";"英 號 樂 基 中心 地下 4 號 舖, 738 King's Rd, Quarry Bay";22.291063;114.207687;1282
"Sports Bar";18;"school";"Western restaurant";"Tsuen Wan, 荃灣荃華街3號悅來酒店3樓";22.369063;114.120562;1283
"Point One Bar";2;"school";"Food and beverage consultant";"Central, 33 Wing Wo Street, Sheung Wan, Hong Kong";22.285687;114.153938;1286
"The Ritz-Carlton, Hong Kong";949;"school";"International Commerce Centre, 1 Austin Road West null, Tsim Sha Tsui";"Located in: International Commerce Centre";22.303437;114.160187;1287
"airplay blow dry bar";11;"school";"Beauty Salon";"Shop 317, 3/F Landmark Atrium 15 Queen’s Road, Central";22.281563;114.157688;1289
"Hong Kong Bar Association";5;"school";"Association or organization";"Admiralty, 香港金鐘道38號高等法院低層2樓";22.278563;114.163438;1290
"The Landmark, Mandarin Oriental";213;"school";"15 Queen's Road Central, Central";"Located in: LANDMARK - LANDMARK ATRIUM";22.280563;114.157937;1291
"airplay nail bar 美甲造型概念店";4;"school";"Nail Salon";"Shop B223 K11 Art Mall, 18 Hanoi Rd, Tsim Sha Tsui";22.297437;114.173437;1293
"南海一號 - Nanhai no.1";194;"school";"Dim Sum restaurant";"30/F, iSQUARE 63 Nathan Road, Tsim Sha Tsui, Kowloon, Hong Kong, Tsim Sha Tsui";22.297188;114.171938;1294
"A Beauty Bar";1;"school";"Health and beauty shop";"467-473 Hennessy Rd, Bowrington";22.280063;114.182313;1295
"Winstons Coffee";329;"school";"Coffee shop";"Shop 4, G/F Rich Court, 213 Queen's Rd W, Sai Ying Pun";22.287062;114.144313;1296
"NOC Coffee Co.";218;"school";"Coffee shop";"321 Des Voeux Rd W, Sai Ying Pun";22.287688;114.139312;1297
"Starbucks";50;"school";"Coffee shop";"1 On Ning Ln, Shek Tong Tsui";22.287313;114.138687;1298
"NOC Graham St.";171;"school";"Coffee shop";"34 Graham St, Central";22.282813;114.153313;1299
"Why 50";188;"school";"Coffee shop";"Fu Fai Commercial Centre, Shop E, G/F, Fu Fai Commercial Centre, 27 Hillier St, Sheung Wan";22.285188;114.151312;1300
"Pacific Coffee";69;"school";"Coffee shop";"Shop Nos. 1 & 3-5, G/F, Hollywood Centre, 233 Hollywood Road, Sheung Wan";22.285438;114.148187;1301
"Stone Coffee";27;"school";"Coffee shop";"56號 Centre St, Sai Ying Pun";22.285438;114.142063;1305
"Brew Bros Coffee";54;"school";"Cafe";"53 Hill Rd, Shek Tong Tsui";22.284688;114.136063;1306
"Waffling Beans";83;"school";"Dessert restaurant";"Shop 9C, 4-8 North St, Kennedy Town";22.283813;114.128813;1307
"Coffee by Zion";80;"school";"Cafe";"87 First St, Sai Ying Pun";22.286563;114.141687;1310
"Artisan Room";76;"school";"Cafe";"8, 12 South Ln, Shek Tong Tsui";22.285438;114.134688;1311
"Happiness Single Coffee";58;"school";"Cafe";"Wah Fai Court, 1-6 Ying Wa Terrace, Sai Wan";22.284937;114.142563;1312
"Hazel & Hershey Coffee Roasters";223;"school";"Coffee shop";"69 Peel St, Central";22.282063;114.151937;1313
"Dear Neighbour Coffee";20;"school";"Cafe";"Sai Wan, Po Tuck St, 9-15號西環保德街 Yen Oi Garden, 地下15號";22.284688;114.136187;1314
"Hazel & Hershey Coffee Roasters X Khromis";3;"school";"Coffee shop";"1 Tai Ping Shan St, Sheung Wan";22.284313;114.148938;1316
"Artisan Garden Cafe";44;"school";"Cafe";"23 Po Tuck St, Sai Wan";22.284688;114.136438;1317
"Polygon Cafe";56;"school";"Cafe";"14 Second Street, Sai Ying Pun";22.286063;114.143063;1318
"The Cofftea Shop";47;"school";"Espresso Bar";"Yue On Building, 78-86 Catchick St, Sai Wan";22.282938;114.126813;1319
"NOC Gough St.";166;"school";"Coffee shop";"18 Gough St, Central";22.284062;114.152563;1321
"Coco Espresso";96;"school";"Coffee shop";"Central, Stanley St, 50號信 誠 廣場 地下 D 鋪";22.282813;114.155063;1322
"N1 Coffee & Co.";535;"school";"Coffee shop";"34 Mody Rd, Tsim Sha Tsui";22.297188;114.174687;1324
"Missing Piece Cafe";57;"school";"Cafe";"35 Eastern St, Sai Wan";22.285813;114.143563;1325
"Just Coffee & Wine";20;"school";"Coffee shop";"號 B 地下, 16 Tai Ping Shan St, Tai Ping Shan";22.284438;114.148688;1327
"The Cupping Room Central";375;"school";"Coffee shop";"G/F,, 18 Cochrane St, Central";22.283188;114.154438;1329
"The Coffee Academics Lan Kwai Fong";111;"school";"Cafe";"Guilar House, 24 D'Aguilar St, Central";22.281062;114.155688;1331
"Opendoor Cafe + Courtyard";66;"school";"Cafe";"120 Connaught Rd W, Sai Ying Pun";22.288438;114.144313;1333
"Lex Coffee";141;"school";"Cafe";"100 Belcher's St, Kennedy Town";22.282562;114.127938;1334
"Momentum Coffee Roaster";41;"school";"Coffee shop";"13 Peel Street, 13 Peel St, Central";22.283813;114.153562;1335
"Halfway Coffee 半路咖啡";81;"school";"Cafe";"號地下, 26 Upper Lascar Row, Sheung Wan";22.284812;114.149563;1338
"La Station";94;"school";"Coffee shop";"G1-2, Sunlight Tower, 248 Queen's Road East, Wan Chai";22.274688;114.173562;1339
"MANSONS LOT";155;"school";"Coffee shop";"15 Swatow St, Wan Chai";22.275688;114.171687;1341
"The Cupping Room Roastery";95;"school";"Cafe";"Silver Jubilee Mansion, Shop 8, Silver Jubilee Mansion,, 62-72 Po Hing Fong, Sheung Wan";22.283813;114.148312;1342
"The Coffee Academics";2;"school";"Cafe";"1 Sai Yuen Ln, Sai Wan";22.287938;114.141813;1343
"Coffee & Laundry";31;"school";"Cafe";"Sheung Wan, Queen Street 1";22.287313;114.147062;1344
"18 Grams";192;"school";"Cafe";"Causeway Bay, Cannon St, 15-27號Hoi To Court";22.281563;114.183563;1345
"Black Sugar Coffee & Lifestyle";118;"school";"Coffee shop";"G/F, Peace Mansion, 8 Peace Ave, Ho Man Tin";22.319313;114.173562;1346
"Golden Cup Specialty Coffee";9;"school";"Cafe";"9 Des Voeux Rd W, Sheung Wan";22.287938;114.147438;1347
"Café Causette";93;"school";"Coffee shop";"5 Connaught Rd Central, Central";22.281938;114.159438;1350
"Omotesando Koffee";282;"school";"Coffee shop";"200, 24-25 Queen's Rd E & Lee Tung St, Wan Chai";22.275688;114.172438;1351
"Startburks Coffee";2;"school";"Cafe";"Midland Centre, 號 G61-G62, 328 Queen's Road Central, Tai Ping Shan";22.285188;114.149938;1352
"The Coffee Academics The Morrison";237;"school";"Coffee shop";"223-227 Wan Chai Rd, Morrison Hill";22.277813;114.179438;1356
"Uncle Russ Coffee";5;"school";"Coffee shop";"Central, 中環6號碼頭";22.287187;114.160187;1358
"The Nest";13;"school";"Coffee shop";"4 Garden Rd, Central";22.278812;114.159938;1359
"% Arabica Hong Kong Star Ferry";197;"school";"Cafe";"Shop KP-41, 1/F, Star Ferry Pier, Tsim Sha Tsui";22.293812;114.168188;1360
"Bluebird Coffee";3;"school";"Coffee shop";"Lucky Commercial Centre, Shop B, G/f, 103 Des Voeux Rd W, Sai Ying Pun";22.287938;114.145063;1363
"Cafe Talay";14;"school";"Cafe";"Shop 1i, G/F, 118 Connaught Rd W, Sai Ying Pun";22.288438;114.144438;1364
"Cafe Life";30;"school";"Cafe";"Centrepoint, 72 Staunton St, Central";22.283312;114.151688;1365
"Pacific Coffee Company";3;"school";"Coffee shop";"Central, Des Voeux Rd Central, 83號 15/F Hang Seng Bank Headquarters Building";22.284438;114.155938;1366
"Blueplace Cafe";25;"school";"Cafe";"Shop A (Portion), G/F., Sai On House, No. 93-95 Belcher's Street, Hong Kong, Sai Wan";22.282813;114.128813;1368
"Starbucks Coffee";49;"school";"Coffee shop";"Shop CEN K4-K5, Central MTR Station, Central, Central";22.281438;114.159813;1370
"Vida Coffee Stand";8;"school";"Coffee shop";"Shop 220-1, 2F, Nine Queen's Road Central (shops: The Galleria), 9 Queen's Road Central,, Central";22.280313;114.158562;1371
"Holly Brown Coffee";3;"school";"Cafe";"Shun Tak Centre West Wing, 200, 168-200 Connaught Rd Central, Sheung Wan";22.287938;114.151812;1375
"R&R Bagels";204;"school";"Restaurant";"28 Li Yuen St W, Central";22.283312;114.156438;1376
"半路咖啡";75;"school";"Cafe";"26 Upper Lascar Row, Sheung Wan";22.284812;114.149813;1378
"Two Macdonnell Road Coffee Shop";3;"school";"Coffee shop";"Mid-level, Mid-Levels 麥當勞道2號8樓";22.276188;114.155563;1379
"Coffee Alley (Tsim Sha Tsui)";341;"school";"Restaurant";"Han Hing Mansion, 38-40 Hankow Rd, Tsim Sha Tsui";22.297688;114.171187;1380
"Coffee Central by Coffee Exchange";107;"school";"Cafe";"22 Des Voeux Rd Central, Central";22.282687;114.157063;1381
"Books & Co.";32;"school";"Book store";"10 Park Road, Mid-level";22.283938;114.143313;1384
"Fuel Espresso";126;"school";"Cafe";"3/F IFC Mall, 1 Harbour View St, Central";22.284937;114.157312;1385
"The Cupping Room Wan Chai";214;"school";"Coffee shop";"32 Swatow St, Wan Chai";22.276188;114.172063;1386
"The Coffee Moment Limited";9;"school";"Cafe";"40 Eastern St, Sai Ying Pun";22.286688;114.143813;1387
"Brew Note Coffee Roaster";205;"school";"Coffee shop";"North Point, Fort St, 19號HK 香港島";22.289813;114.196563;1388
"Filters Lane";72;"school";"Cafe";"111 Caine Rd, Mid-level";22.282562;114.150687;1392
"Maison Eric Kayser - Mid-Levels";62;"school";"Bakery";"38 Caine Rd, Mid-level";22.280813;114.152437;1396
"Green Coffee Beans Hong Kong";1;"school";"Coffee shop";"Connaught Rd W, Sheung Wan";22.287938;114.148312;1398
"Lof10";89;"school";"Cafe";"1 U Lam Terrace, Sheung Wan";22.283688;114.148812;1400
"Coffee Roastery Lab Sheung Wan";8;"school";"Cafe";"1-3 Mercer St, Sheung Wan";22.285562;114.151812;1403
"starbucks coffee midland centre";3;"school";"Cafe";"12 Tung St, Tai Ping Shan";22.285438;114.149813;1404
"Nodi Coffee";8;"school";"Cafe";"34 Graham St, Central";22.282562;114.152938;1405
"Café 330";20;"school";"Cafe";"203, Chong Yuet Ming Amenities Centre, Pok Fu Lam Rd, Lung Fu Shan";22.282687;114.139063;1406
"Starbucks Reserve";54;"school";"Coffee shop";"Admiralty";22.277563;114.166688;1407
"Nodi";17;"school";"Cafe";"8 Connaught Rd Central, Central";22.282063;114.158688;1408
"The Alchemist Creative Coffee by GaBee";24;"school";"Coffee shop";"Hong Kong Arts Centre, K11, 2 Harbour Rd, Tsim Sha Tsui";22.297688;114.173938;1409
"beanery";11;"school";"Espresso Bar";"Shop G08, G/F Nan Fung Tower,, 88 Connaught Rd Central, Central";22.286063;114.154563;1410
"Urban Coffee Roaster";90;"school";"Cafe";"Hong Mei Building, 135 Lai Chi Kok Rd, Tai Kok Tsui";22.325438;114.164437;1411
"Le Salon De Thé de Joël Robuchon";55;"school";"Tea house";"International Finance Centre Mall & Airport Express Hong Kong Station, Shop 2045A, Podium Level 2, ifc mall International Finance Center, 8 Finance St, Central";22.286312;114.157563;1415
"Steam Cafe & Studio";28;"school";"Cafe";"Si Toi Commercial Building, 4 樓, Queen St, Sheung Wan";22.288063;114.147062;1416
"LN Fortunate Coffee";142;"school";"Vegan restaurant";"Sai Wan, Second St, 118號懿山地舖";22.286188;114.140188;1417
"Q PLACE COFFEE CORNER";2;"school";"Cafe";"Sai Wan";22.281563;114.127812;1418
"1/16 Coffee Co";9;"school";"Coffee shop";"Shop 1, LG/F, 1 Lyndhurst Tower, 1 Lyndhurst Terrace, 78 Wellington Street, Central, Hong Kong, Central";22.282562;114.154688;1419
"Harbour Road Café";8;"school";"Coffee shop";"Wan Chai, 灣仔港灣道1號香港會議展覽中心港灣道入口";22.281938;114.173562;1421
"Just Shot";4;"school";"Coffee shop";"太古 廣場 二 期, Admiralty";22.278063;114.165438;1422
"Le Café de Joel Robuchon";74;"school";"Cafe";"3-27 Canton Rd, Tsim Sha Tsui";22.297437;114.167938;1424
"Pret a Manger";8;"school";"Cafe";"88 Connaught Rd Central, Central";22.286063;114.154438;1425
"Fuel Coffee Shop";2;"school";"Cafe";"8 Connaught Rd Central, Central";22.282188;114.158437;1428
"COVA Caffe";51;"school";"Cafe";"Shop G315, Gateway Arcade, Gateway Blvd, Tsim Sha Tsui";22.297313;114.168062;1429
"sensory ZERO [ Headquarters | Specialty Coffee Roasters ]";197;"school";"Coffee shop";"One Island South, G01,, 2 Heung Yip Rd, Wong Chuk Hang";22.248563;114.168813;1430
"Elephant Grounds";238;"school";"Cafe";"8 Wing Fung St, Wan Chai";22.276813;114.168188;1431
"Hong Kong Cafe";88;"school";"Bar";"Wan Chai, 98 Jaffe Road Basement";22.278438;114.172063;1432
"Tom N Toms Coffee";21;"school";"Coffee shop";"1 Matheson St, Causeway Bay";22.278187;114.182313;1434
"Oak by Choco Choco";5;"school";"Coffee shop";"B33 B1/F, Lee Tung St, Wan Chai";22.275938;114.172563;1436
"NOC BA Tower";1;"school";"Coffee shop";"Central, Harcourt Rd, 12號HK 香港島 金鐘 Shop No. G1A Bank of America Tower";22.280688;114.162938;1437
"Magical Coffee & Pasta";0;"school";"Cafe";"Sheung Wan, 上環永樂街1-3號世瑛大廈2樓201室";22.285687;114.153813;1438
"Holly Brown Coffee - 100 QRC";1;"school";"Coffee store";"Nine Queen's Road Central (shops: The Galleria), A, G/F, 100, 9 Queen's Road Central, Central";22.283563;114.154937;1439
"Café Sausalito at Baumhaus Wanchai";1;"school";"Cafe";"First Floor, Kar Yau Building, 36 44 Queens Road East, 0000, Wan Chai";22.277063;114.168563;1440
"Pret A Manger - Three Garden Road";2;"school";"Cafe";"3 Garden Rd, Central";22.278438;114.160812;1442
"Café Sausalito";207;"school";"Cafe";"201 Tai Nan St, Sham Shui Po";22.327438;114.162938;1443
"13 Peel Coffee Bar";0;"school";"Cafe";"Ground Level, 13 Peel St, Central";22.283813;114.153562;1444
"Café Sausalito at Harbour City";1;"school";"Cafe";"7 Canton Rd, Tsim Sha Tsui";22.296687;114.168563;1445
"sensory ZERO [ COFFEE x BEER ]";21;"school";"Coffee shop";"Tsim Sha Tsui, Canton Rd, 3號Lane Crawford, Ground Floor";22.295312;114.168563;1447
"Africa Coffee & Tea";56;"school";"Cafe";"15/F, Suite 1501, 41 Heung Yip Rd, Wong Chuk Hang";22.247813;114.163063;1448
"Ralph’s Coffee Hong Kong";26;"school";"Cafe";"OT313, Ocean Terminal, Harbour City, Tsim Sha Tsui";22.295187;114.167813;1451
"Coffee on the Sand";10;"school";"Cafe";"Mong Kok, Tung Choi St, 9-15號1樓A室";22.316937;114.170938;1452
"Ralph's Coffee Ocean Terminal";3;"school";"Coffee shop";"Canton Rd, Tsim Sha Tsui";22.294938;114.168438;1453
"The Coffee Academics Harbour City";64;"school";"Cafe";"Kiosk 1, 2/F, Gateway Arcade, Harbour City, 3-27 Canton Road, Tsim Sha Tsui, Kowloon, Tsim Sha Tsui";22.299313;114.168188;1454
"拾捌咖啡";17;"school";"Cafe";"Tsim Sha Tsui East, Mody Rd, 63號地下G55號舖 好時中心";22.298187;114.176688;1457
"Happy Alley Coffee Bar";28;"school";"Cafe";"Happy Valley, Yik Yam St, 38-42號No 6";22.269187;114.183938;1458
"Dolce 88";4;"school";"Cafe";"Lobby Level, JW Marriott Hotel Hong Kong, Pacific Place, 88 Queensway, Admiralty, Admiralty";22.277437;114.166313;1460
"Coffee/Tea/Breakfast";0;"school";"Restaurant";"555 Hennessy Rd, Causeway Bay";22.280437;114.184312;1462
"Coffee Talks";98;"school";"Cafe";"167 Sai Yee St, Mong Kok";22.322938;114.170813;1464
"Knockbox Coffee Company";86;"school";"Cafe";"21 Hak Po St, Mong Kok";22.317562;114.172563;1465
"Craft Coffee Roaster";162;"school";"Cafe";"29 Tai Kok Tsui Rd, Tai Kok Tsui";22.319187;114.161938;1466
"18 Grams Specialty Coffee";70;"school";"Coffee store";"1-3 Mercer St, Sheung Wan";22.285562;114.151937;1468
"NOC Coffee Co";19;"school";"Coffee shop";"shop 3a g/f, On Hing Mansion, Tai Wong St E, Wan Chai";22.275688;114.171313;1469
"COFFEE DX by Colour Brown";2;"school";"Coffee wholesaler";"Tsim Sha Tsui, Canton Rd, 海港城海運大廈 Shop OTE 206, 2/F, Ocean TerminaOTE 206號铺";22.294562;114.165188;1470
"Cova Pasticceria & Confetteria";20;"school";"Tea house";"Tsim Sha Tsui, Canton Rd, 3-27號號116A&B";22.297437;114.168563;1471
"Coffee 101";29;"school";"Cafe";"45 Braemar Hill Rd";22.284812;114.199937;1472
"Mad About Coffee";0;"school";"Cafe";"FlatD, 2/F, Wing Wah Building, 14-22 Sai Yeung Choi Street , Mong Kok, Mong Kok";22.317438;114.170562;1473
"Courage Eighteen";7;"school";"Art Cafe";"Tsim Sha Tsui, Mody Rd, 63號Shop G55 G/F Houston Centre 63 Mody Road Houston Centre, 地下55號";22.298187;114.176688;1474
"George Coffee";0;"school";"Coffee shop";"Mong Kok";22.317562;114.163688;1476
"Africa Coffee And Tea";2;"school";"Cafe";"Heung Yip Rd, 41號15樓01室";22.247687;114.162938;1481
"Urban Coffee Roaster at Galleon";12;"school";"Cafe";"1/F, Shop B, Fashion Walk, 7 Kingston St, Causeway Bay";22.282438;114.185813;1484
"Gladys' Estate Coffee";85;"school";"Cafe";"15號D, 6-8 Lion Rock Rd, Kowloon City";22.327937;114.188188;1485
"J.Co Donuts & Coffee";173;"school";"Coffee store";"Shop 1 & Shop 2 Ground Floor, 55 Hennessy Road, Wan Chai";22.277813;114.170688;1486
"The Coffee Academïcs Studio";6;"school";"Coffee store";"So Kon Po, Leighton Rd, 銅鑼灣禮頓道128-138號希雲大廈1樓";22.278187;114.186563;1488
"n.o.t. Specialty Coffee";19;"school";"Coffee store";"Causeway Bay, Hysen Ave33號Shop 212, Lee Garden One";22.278563;114.185063;1489
"Café & Meal MUJI";61;"school";"Cafe";"Shop No. 5B, G/F, Hopewell Centre, 183 Queen's Rd E, Wan Chai";22.274813;114.171563;1490
"息 Leaf Cafe";19;"school";"Art Cafe";"Tsim Sha Tsui, 柯士甸路17號豐樂大廈地下4B鋪";22.302687;114.174938;1491
"Elephant Grounds Causeway Bay";283;"school";"Cafe";"Shop C, G/F, 42-28 Fashion Walk, Paterson St, Causeway Bay";22.281812;114.185188;1492
"Kitamura Coffee";3;"school";"Coffee store";"2, 4-6 Shing Ping Street, Happy Valley";22.267938;114.187063;1493
"Brioche Doree";11;"school";"Cafe";"Tai Kok Tsui, Beech St, 88號, Park Summit Tower 2, G07&G08";22.320938;114.163312;1494
"MELLOW BROWN COFFEE by UCC";8;"school";"Restaurant";"Tsim Sha Tsui, Canton Rd, 3 - 27";22.294938;114.165438;1496
"Barista Jam";170;"school";"Cafe";"G/F, 97 Jervois St, Sheung Wan";22.285562;114.150562;1497
"Debenhams Ltd";1;"school";"Cafe";"23/F, 909 Cheung Sha Wan Road, Lai Chi Kok, Kowloon, Cheung Sha Wan";22.336313;114.146313;1498
"Classified Sheung Wan";142;"school";"Cafe";"108 Hollywood Rd, Tai Ping Shan";22.283813;114.150813;1499
"Kaffeine";85;"school";"Restaurant";"108 Jervois St, Sheung Wan";22.285313;114.150562;1500
"JW Café";30;"school";"Buffet restaurant";"One Pacific Place, 88 Queensway, Admiralty";22.277688;114.165438;1502
"Espresso Alchemy";48;"school";"Coffee shop";"Quarry Bay, Hoi Wan St, 4-6號Shop 8";22.287938;114.211437;1503
"Holly Brown Coffee Roasters";78;"school";"Restaurant";"15 Cheung Shun St, Cheung Sha Wan";22.336313;114.147562;1504
"Classified New World Tower";46;"school";"Restaurant";"Shop No. 1, 1/F New World Tower, 16-18 Queen's Road Central, Central";22.280813;114.157187;1505
"Nespresso Boutique ifc";30;"school";"Coffee machine supplier";"Shop 1058, Podium 1, ifc Mall, Hong Kong, Central";22.285562;114.158063;1506
"The Coffee Academics Repulse Bay";63;"school";"Cafe";"26 Beach Rd, Repulse Bay";22.235313;114.198313;1508
"Nutsy Coffee Bar";35;"school";"Coffee shop";"2/f Dorset House, Taikoo Place, 979 King's Rd, Quarry Bay";22.287062;114.211813;1509
"Café Landmark";270;"school";"Continental restaurant";"15 Queen's Road Central, Central";22.280938;114.158188;1511
"Tsit Wing (Hong Kong) Company Limited";10;"school";"Grocery store";"Kwai Tak Industrial Centre, 15-33 Kwai Tak St, Kwai Chung";22.353188;114.123188;1512
"Little Break Coffee & Kitchen";98;"school";"Restaurant";"Cheung Sha Wan, Cheung Yee St, 9號G03,G/F,D2 Place 商場";22.335938;114.148688;1513
"Hazel & Hershey Coffee Roastery Lab";0;"school";"Cafe";"Unit D, 16/F., Shui Wing Industrial Building, 12-22 Tai Yuen Street, Kwai Chung";22.370063;114.136063;1514
"Bound By Hillywood";83;"school";"Bar";"32 Boundary St, Mong Kok";22.326313;114.167063;1519
"Coffee ART";66;"school";"Coffee shop";"成業街 7 號, 東廣場地下 46-48 號舖, Kwun Tong";22.310937;114.226188;1520
"Return Coffee 362";3;"school";"Coffee shop";"Tsuen Wan, Sha Tsui Rd, 362號Shop G1, G/F";22.368187;114.118938;1521
"Segafredo ZANETTI";0;"school";"Western restaurant";"Central, 中環蘭桂坊威靈頓街33號The Loop地下";22.282063;114.155438;1522
"Bodum";0;"school";"Kitchen supply store";"555 Hennessy Rd, Causeway Bay";22.280437;114.184563;1524
"TASCHEN Store Hong Kong";1;"school";"Book store";"Shop 01-G02 Tai Kwun 10 Hollywood Road Central, Central";22.281438;114.153938;1526
"Nespresso Boutique Festival Walk";3;"school";"Coffee machine supplier";"Shop LG2- 70, Festival Walk, Kowloon Tong";22.337188;114.174938;1528
"Redback Coffee";2;"school";"Coffee wholesaler";"Success Industrial Building, 17 Sheung Hei St, San Po Kong";22.337687;114.197688;1529
"Colour Brown DX";1;"school";"Coffee Roasters";"17 Kwun Chung St, Yau Ma Tei";22.303813;114.168563;1530
"Origin Roastery";6;"school";"Food manufacturer";"197A Queen's Road Central, Sheung Wan";22.285063;114.152688;1531
"La Station - Mettā";0;"school";"Cafe";"Mettā, 21/F California Tower, 30-32 D'Aguilar Street, Central";22.280938;114.155438;1533
"Porch Coffee Bar";11;"school";"Cafe";"Eltee Building, 1/F No., 3 Ning Foo St, Chai Wan";22.265562;114.237063;1534
"Nespresso";0;"school";"Point of interest";"Shop 1 & 2, Lower G/F, Melbourne Plaza, 33 Queen's Road, Central";22.282188;114.156562;1535
"Butterfly Beach Park Parking Lot";21;"school";"Parking";"Lung Mun Rd, Butterfly Beach";22.374688;113.958688;1538
"Wilson Parking";0;"school";"Parking Lot";"Tuen Mun";22.379813;113.970438;1539
"屯門市廣場一期停車場";14;"school";"Parking Lot";"Tuen Fat Rd, Tuen Mun";22.393313;113.977313;1540
"Parklane Square Car Park";27;"school";"Parking Lot";"Tuen Mun";22.390813;113.977313;1541
"Siu Hin Court Car Park";2;"school";"Parking Lot";"3 Leung Wan St, Tuen Mun";22.407063;113.970063;1542
"Shan King Car Park 1";0;"school";"Parking Lot";"1 Ming Kum Rd, Tuen Mun";22.396562;113.965813;1543
"On-Street Parking Space: Hung Cheung Road";1;"school";"Parking Lot";"Hung Cheung Rd, Tuen Mun";22.393188;113.969062;1544
"Grandeur Gardens Parking";7;"school";"Parking Lot";"San Hui, King Fung Path, 景峰徑3號";22.404813;113.981188;1545
"Tin King Estate Car Park";5;"school";"Parking Lot";"10 Tin King Rd, Tuen Mun";22.406812;113.965063;1546
"Skycity Car Park 2";0;"school";"Parking Lot";"Chek Lap Kok";22.316313;113.939187;1547
"South Commercial Car Park";11;"school";"Parking Lot";"Chek Lap Kok Fire Station, 號, Catering Rd E, Chek Lap Kok";22.300438;113.933187;1548
"啟富停車場";1;"school";"Parking Lot";"號, 13 Sam Shing St, Tuen Mun";22.380187;113.977813;1549
"On-Street Motorcycle Parking Spaces";0;"school";"Parking Lot for Motorcycles";"Hong Kong Gold Coast";22.372687;113.988813;1550
"Airport Skycity Car Park";19;"school";"Parking Lot";"Chek Lap Kok";22.318938;113.940937;1551
"Hong Kong International Airport Multi-Storey Car Park";41;"school";"Parking Garage";"11 Cheong Tat Road, Chek Lap Kok";22.317938;113.934312;1552
"Peridot Court Car Park";5;"school";"Parking Lot";"So Kwun Wat";22.366687;113.998062;1555
"Zone A, H.A.N.D.S Car Park";1;"school";"Parking Garage";"2A Tuen Mun Heung Sze Wui Road, Tuen Mun";22.386938;113.975938;1556
"City Gate North Parking";6;"school";"Parking Garage";"39 Man Tung Rd, Tung Chung";22.290812;113.943188;1557
"Yat Tung Estate Car Park Car Park No. 2";136;"school";"Parking Lot";"Tung Chung";22.281187;113.935688;1558
"Star Ferry Car Park";98;"school";"Parking Lot";"9 Edinburgh Pl, Central";22.282562;114.160438;1559
"東薈城北面停車場";38;"school";"Parking Lot for Motorcycles";"39 Man Tung Rd, Tung Chung";22.290938;113.943438;1560
"Hong Kong Scout Center Parking Lot";37;"school";"Parking Garage";"Tsim Sha Tsui";22.302438;114.169187;1561
"Fu Tung Plaza Parking";3;"school";"Parking Garage";"6 Fu Tung St, Tung Chung";22.288188;113.942187;1563
"Universal Trade Centre Car Park";13;"school";"Parking Lot";"3 Arbuthnot Rd, Central";22.280188;114.154187;1564
"Parking Lot";1;"school";"Free Parking Lot";"Lantau Island";22.221687;113.884563;1565
"Kennedy Centre Car Park";0;"school";"Parking Lot";"38 Praya, Kennedy Town, Kennedy Town";22.284187;114.130187;1566
"Metered Parking Space";2;"school";"Parking Lot";"Upper Albert Rd, Central";22.278937;114.158188;1567
"Citygate Outlets (South) Car Park";9;"school";"Parking Garage";"Tung Chung";22.290188;113.940937;1568
"Hollywood Terrace Wilson Parking - 荷李活華庭";1;"school";"Parking Lot";"133 -149 Hollywood Rd, Tai Ping Shan";22.284062;114.151188;1569
"Ting Kau Car Park";21;"school";"Parking Lot";"迴旋 處, Ting Yat Rd, Ting Kau";22.369563;114.077563;1570
"The Gateway - Car Park";13;"school";"Parking Lot";"Tsim Sha Tsui, 廣東道25號";22.299313;114.167688;1571
"Cyberport Car Park";1;"school";"Parking Lot";"100 Cyberport Rd, Telegraph Bay";22.262438;114.130812;1573
"Wilson Parking - 華明中心";1;"school";"Parking Lot";"號, 394 Des Voeux Rd W, Sai Wan";22.286188;114.137188;1574
"Wilson Parking - 干諾道西";1;"school";"Parking Lot";"號, 103 Connaught Rd W, Sheung Wan";22.288188;114.145063;1577
"Street Parking Lot";0;"school";"Parking Lot";"Kimberley Rd, Tsim Sha Tsui";22.301563;114.175312;1578
"Chong Yip Centre Parking";4;"school";"Parking Lot";"Sai Wan, Queen's Rd W, 423號號";22.286063;114.137063;1579
"Parking Near IHV";0;"school";"Parking Lot";"Tai Kok Tsui";22.320063;114.157688;1580
"Kwan Yick Building Phase 2 Car Park";6;"school";"Parking Lot";"Sai Wan, 幹諾道西169～178號";22.287688;114.138188;1581
"Wilson Car Park, Centennial Campus";1;"school";"Parking Lot";"Redmond Building, 79C Pok Fu Lam Rd, Shek Tong Tsui";22.283688;114.134813;1582
"Kwan Yick Building Phase 1 Car Park";6;"school";"Parking Lot";"Shek Tong Tsui";22.286813;114.134437;1583
"Hong Dou Yizuo Parking";0;"school";"Parking Lot";"22 Cadogan St, Sai Wan";22.283312;114.125937;1584
"Parking meters";0;"school";"Parking Lot";"Sai Wan, New Praya Kennedy Town, 25號35 Ka Fu Building Block A";22.283813;114.127063;1585
"The Merton Tower 3 Parking";0;"school";"Parking Lot";"10 Davis St, Sai Wan";22.282813;114.126687;1586
"Wan Chai Tower Car Park";2;"school";"Parking Lot";"Wan Chai";22.280313;114.172563;1587
"12 Chung Mei Rd Garage";0;"school";"Parking Lot";"12 Chung Mei Rd, Tsing Yi";22.349687;114.108188;1588
"Wilson Parking - 香港商業中心";4;"school";"Parking Lot";"號, 186 Connaught Rd W, Shek Tong Tsui";22.287187;114.136438;1589
"Kwan Yick Building Phase 3 Car Park";6;"school";"Parking Lot";"Sai Wan";22.288438;114.140688;1590
"Wealth Commercial Centre Car Park";3;"school";"Parking Lot";"Mong Kok, 廣華街";22.316812;114.173688;1591
"Hi Park Limited";2;"school";"Parking Lot";"250 Hennessy Rd, Wan Chai";22.277688;114.175812;1592
"Car Park 5";0;"school";"Public Parking Space";"20 Sky City Rd E, Chek Lap Kok";22.316563;113.943188;1594
"Imperial Parking - Cooke Street";2;"school";"Parking Lot";"57, 75 Cooke St, Hung Hom";22.307187;114.184438;1595
"Sasson Road Parking";0;"school";"Parking Lot";"Sasson Road, Sandy Bay";22.268063;114.129438;1596
"紅磡警署停車場入口";1;"school";"Parking Lot";"Chung Hau St, Ho Man Tin";22.315437;114.177813;1598
"Faculty of Medical Building, HKU";0;"school";"Parking Lot";"7 Northcote Cl, Sandy Bay";22.267313;114.128813;1600
"Hung Hom Car Park";0;"school";"Parking Lot";"9 Dyer Ave, Hung Hom";22.307438;114.188688;1601
"Guangdong Finance Building Car Park";0;"school";"Parking Lot";"Sheung Wan";22.288188;114.145688;1602
"17 Glee Path Garage";0;"school";"Parking Lot";"17 Glee Path, Mei Foo Sun Chuen";22.336563;114.139937;1603
"大隴街路旁咪錶泊車位 2";2;"school";"Parking Lot";"Kwai Loong Building, 53 Tai Loong St, Kwai Chung";22.365187;114.137563;1604
"Chinachem Century Tower Car Park";0;"school";"Parking Lot";"Wan Chai, 告士打道178";22.279938;114.178438;1605
"Peak Galleria Car Park";9;"school";"Parking Lot";"The Peak";22.270313;114.149563;1606
